Fid;Ambito;IDServizio;Servizio;Denominazione;Indirizzo;Cap;CodiceIstat;Comune;Provincia;Telefono;Fax;Email;RicettivitàMax;TipologiaGestione;Latitudine;Longitudine;CF_P.IVA_Prestatore;FormaGiuridicaPrestatore;DenominazionePrestatore;IndirizzoPrestatore;CapPrestatore;CodIstatPrestatore;ComunePrestatore;ProvinciaPrestatore;TelefonoPrestatore;FaxPrestatore;E_MailPrestatore;PECPrestatore;TipologiaProvvedimento;TipologiaAtto;NumeroProvvedimento;DataProvvedimento;StatoScheda;DataInoltroDG
1;S05;SRS11;Comunità alloggio (dai 13 ai 18 anni);Il Casale;V.le G.R.Pastore  6;84100;65116;Salerno;SA;089301519;089301519;insieme@pec.it;8;privata in affidamento;40,645112;14,829807;263650657;Cooperativa Sociale;Insieme;V.le G.R.Pastore 6;84100;65116;Salerno;SA;089301519;089301519;insieme@pec.it;;Autorizzazione;;215749;2012-11-20 00:00:00.000;Parzialmente compilata;
2;N01;SRS10;Comunità educativa a dimensione familiare (dai 4 ai 13 anni);FRATELLO SOLE;VIA CAPODIMONTE 13/B;80136;63049;Napoli;NA;3293775391;0817415021;ajisfsc@libero.it;6;privata in affidamento;40,86529;14,2467;305840613;CONGREGAZIONE;SUORE FRANCESCANE DEI SACRI CUORI;PIAZZA SAN FRANCESCO 4;81043;61015;Capua;CE;0817415021;0817415021;capua@suorefrancescanedeisacricuori.it;;Autorizzazione;Disposizione Dirigenziale;116;2015-07-10 00:00:00.000;Confermata e inoltrata alla DG;2015-07-16 15:46:38.000
3;N33;SRS10;Comunità educativa a dimensione familiare (dai 4 ai 13 anni);Comunità educativa a dimensione familiare "Myriam";Via Cristoforo Colombo, 74;80062;63046;Meta;NA;0818786638;;Congre1c@suorefrancescanedeisacricuori.191.it;6;privata in affidamento;40,642887;14,41734;305840613;CONGREGAZIONE;SUORE FRANCESCANE DEI SACRI CUORI;PIAZZA SAN FRANCESCO 4;81043;61015;Capua;CE;0817415021;0817415021;capua@suorefrancescanedeisacricuori.it;;Accreditamento;Accreditamento;21;2015-01-07 00:00:00.000;Parzialmente compilata;
4;A03;SRS11;Comunità alloggio (dai 13 ai 18 anni);Servizi "Comunità alloggio per minori V";Via Seminario vecchio, 5;83053;64089;Sant'Andrea di Conz;AV;082735010;;protocollo.santandreadiconza.av@asmepec.it;8;privata in affidamento;40,844205;15,370354;537650640;Ente locale;Comune di Sant'Andrea di Conza;Via Largo Castello;83053;64089;Sant'Andrea di Conz;AV;082735010;;santandrea.comune@tiscali.it;;Autorizzazione;Decreto;11;2018-05-07 00:00:00.000;Confermata e inoltrata alla DG;2018-05-08 10:59:30.000
5;B02;SRS09;Casa famiglia ( da 0 a 18 anni);MADRE AGOSTINA ;VIA I MAGGIO;8020;62003;Apice;BN;0824334305;0824334305;coop.nuoviincontri@alice.it;6;privata in affidamento;41,124417;14,910714;927890624;Società Cooperativa Sociale  ;NUOVI INCONTRI;Via Mario Vetrone;82100;62008;Benevento;BN;0824334305;0824334305;coop.nuoviincontri@alice.it;;Accreditamento;provvedimento di accreditamento;6086;2015-04-01 00:00:00.000;Confermata e inoltrata alla DG;2015-06-11 12:42:33.000
6;B02;SRS10;Comunità educativa a dimensione familiare (dai 4 ai 13 anni);ISIDE;VIA DELCOGLIANO;82020;62003;Apice;BN;0824334305;0824334305;coop.nuoviincontri@alice.it;4;privata in affidamento;41,119443;14,931138;927890624;Società Cooperativa Sociale  ;NUOVI INCONTRI;Via Mario Vetrone;82100;62008;Benevento;BN;0824334305;0824334305;coop.nuoviincontri@alice.it;;Accreditamento;provvedimento di accreditamento;5122;2015-03-18 00:00:00.000;Confermata e inoltrata alla DG;2015-06-11 12:37:07.000
7;B05;SRS10;Comunità educativa a dimensione familiare (dai 4 ai 13 anni);LA PANTERA ROSA;Via Madonna della Libera, snc;82024;62025;Colle Sannita;BN;0824931060;;coop.nuovincontri@alice.it;6;privata in affidamento;41,36469;14,833057;927890624;SocietÃ  Cooperativa Sociale  ;NUOVI INCONTRI;Via dei Mulini, 30;82100;62008;Benevento;BN;0824931060;;coop.nuoviincontri@alice.it;;Accreditamento;ACCREDITAMENTO;Prot. 0003343;2016-03-18 00:00:00.000;Confermata e inoltrata alla DG;2018-02-08 12:40:17.000
8;N18;SRS11;Comunità alloggio (dai 13 ai 18 anni);Comunità Alloggio per minori" Madre Nazarena Majone";Corso Europa,137;80020;63021;Casavatore;NA;0817312930;0815733797;fdz.casavatore@alice.it;6;privata in affidamento;40,900242;14,272136;1051501003;Istituto Religioso;Istituto Figlie del Divino Zelo;Circomvallazione Appia,144;179;58091;Roma;RM;067810239;0662277251;fdzecon@tiscali.it;;Autorizzazione;;Decreto 1;2013-07-26 00:00:00.000;Parzialmente compilata;
9;B01;SRS11;Comunità alloggio (dai 13 ai 18 anni);IL SOGNO DI AYLAN;VIA MEOMARTINI-RIONE CAPPUCCINI, N.41;82100;62008;Benevento;BN;082454848;082454848;info@cooperativalasolidarieta.org;6;privata in affidamento;41,129761;14,782621;1061120620;COOPERATIVA SOCIALE;"LA SOLIDARIETA'";VIA MATARAZZO, 23;82030;62008;Benevento;BN;082454848;082454848;info@cooperativalasolidarieta.org;;Accreditamento;Provvedimento accreditamento;83148;2016-10-03 00:00:00.000;Confermata e inoltrata alla DG;2017-07-24 13:19:36.000
10;B01;SRS10;Comunità educativa a dimensione familiare (dai 4 ai 13 anni);LA GABBIANELLA E IL GATTO;Via Meomartini - Rione Cappuccini, n.132;82100;62008;Benevento;BN;082454848;082454848;info@cooperativalasolidarieta.org;6;privata in affidamento;41,129761;14,782621;1061120620;COOPERATIVA SOCIALE;"LA SOLIDARIETA'";VIA MATARAZZO, 23;82030;62008;Benevento;BN;082454848;082454848;info@cooperativalasolidarieta.org;;Accreditamento;Provvedimento accreditamento;83150;2016-10-03 00:00:00.000;Confermata e inoltrata alla DG;2017-05-25 18:38:42.000
11;N01;SRS10;Comunità educativa a dimensione familiare (dai 4 ai 13 anni);INSIEME;VIA PIETRO CASTELLINO 120;80131;63049;Napoli;NA;0815468206;0815468206;istreden@tiscali.it;6;privata in affidamento;40,858021;14,225644;1066571009;Ente Ecclesiastico;SUORE DEL GESU' REDENTORE;PIAZZA PRIMO MAGGIO N. 43;13;;Roma;;0815468206;0815468206;istedren@tiscali.it;antonietta.lombardi-0378@pec.gov.it;Autorizzazione;Disposizione Dirigenziale;117;2015-07-10 00:00:00.000;Confermata e inoltrata alla DG;2015-07-16 15:46:38.000
12;B05;SRS11;Comunità alloggio (dai 13 ai 18 anni);CASA GIADA;Via delle Rose, snc;82020;62034;Fragneto Monforte;BN;0824174306;;comunitacasagiada@gmail.com;8;privata in affidamento;41,244912;14,761616;1088990625;Cooperativa Sociale ;Giada Onlus Cooperativa Sociale ;Via delle Lame, snc;82024;62025;Colle Sannita;BN;0824939045;;coopgiada@legalmail.it;;Accreditamento;ACCREDITAMENTO;Prot. 0010430;2015-08-03 00:00:00.000;Confermata e inoltrata alla DG;2018-02-08 12:40:17.000
13;B05;SRS11;Comunità alloggio (dai 13 ai 18 anni);RUA NUEVA;Via dei Lucani, n. 123;82026;62044;Morcone;BN;0824957235;;coopgiada@libero.it;8;privata in affidamento;41,33977;14,665455;1088990625;Cooperativa Sociale ;Giada Onlus Cooperativa Sociale ;piazza Roma n. 105;82020;62017;Castelpagano;BN;0824939045;0824939045;coopgiada@libero.it;;Autorizzazione/Accreditamento (art.10 comma 2-punto 2-reg. 4/2010);AUTORIZZAZIONE/ACCREDITAMENTO;Prot. 0001816;2016-02-16 00:00:00.000;Confermata e inoltrata alla DG;2018-02-08 12:40:17.000
14;B05;SRS10;Comunità educativa a dimensione familiare (dai 4 ai 13 anni);Snoopy;via Roma 114;82020;62017;Castelpagano;BN;0824935655;0824939045;coopgiada@libero.it;6;privata in affidamento;41,402881;14,80847;1088990625;Cooperativa Sociale ;Giada Onlus Cooperativa Sociale ;piazza Roma n. 105;82020;62017;Castelpagano;BN;0824939045;0824939045;coopgiada@libero.it;;Autorizzazione;;2122;2012-12-31 00:00:00.000;Completa;
15;B05;SRS27;Struttura di secondo livello per MSNA (Minori stranieri non accompagnati 16-18 anni) ex DGRC n. 631 del 15/11/2016;ALFURAS;C/da Pincere, n. 73;82020;62024;Circello;BN;0824937760;;alfuras2017@gmail.com;16;privata in affidamento;41,349905;14,811818;1088990625;Cooperativa Sociale ;Giada Onlus Cooperativa Sociale ;Via delle Lame, snc;82024;62025;Colle Sannita;BN;0824939045;;coopgiada@legalmail.it;;Autorizzazione/Accreditamento (art.10 comma 2-punto 2-reg. 4/2010);AUTORIZZAZIONE/ACCREDITAMENTO;Prot. 0006263;2017-05-19 00:00:00.000;Confermata e inoltrata alla DG;2018-02-08 12:40:17.000
16;B05;SRS27;Struttura di secondo livello per MSNA (Minori stranieri non accompagnati 16-18 anni) ex DGRC n. 631 del 15/11/2016;AYLAN;Via G. Garibaldi, n. 7;82024;62025;Colle Sannita;BN;0824931496;;comunitaylan@gmail.com;16;privata in affidamento;41,360381;14,833384;1088990625;Cooperativa Sociale ;Giada Onlus Cooperativa Sociale ;Via delle Lame, snc;82024;62025;Colle Sannita;BN;0824939045;;coopgiada@legalmail.it;;Autorizzazione/Accreditamento (art.10 comma 2-punto 2-reg. 4/2010);AUTORIZZAZIONE/ACCREDITAMENTO;Prot. 0006264;2017-05-19 00:00:00.000;Confermata e inoltrata alla DG;2018-02-08 12:40:17.000
17;N01;SRS11;Comunità alloggio (dai 13 ai 18 anni);C.Ed.Ro;viale dei Pini,53;80100;63049;Napoli;NA;0817441574;;cedro.na@libero.it;8;privata in affidamento;40,869831;14,239906;1094971007;Congregazione;Congregazione dei Padri Rogazionisti;via dei Rogazionisti 2/10;100;58091;Roma;RM;0817441574;;cedro.na@libero.it;;Autorizzazione;Disposizione Dirigenziale;175;2015-11-04 00:00:00.000;Confermata e inoltrata alla DG;2015-12-14 17:41:28.000
18;B05;SRS11;Comunità alloggio (dai 13 ai 18 anni);LO SCOIATTOLO;Via Porta di Sopra, n. 22;82020;62024;Circello;BN;0824937637;;coop_loscoiattolo@tiscali.it;8;privata in affidamento;41,354383;14,811152;1144900626;;SOCIETA' COOPERATIVA SOCIALE LA QUERCIA;Via Bebiana, 93 ;82020;62024;Circello;BN;0824937637;;coop_lacoccinella@hotmail.it;comunitalacoccinella@pec.it;Accreditamento;ACCREDITAMENTO;Prot. 0004733;2015-04-13 00:00:00.000;Confermata e inoltrata alla DG;2018-02-08 12:40:17.000
19;B05;SRS10;Comunità educativa a dimensione familiare (dai 4 ai 13 anni);IL GIRASOLE;Via Pietro Nenni, n. 8;82024;62017;Castelpagano;BN;0824337221;;comunitalacoccinella@pec.it;6;privata in affidamento;41,400286;14,807632;1144900626;;SOCIETA' COOPERATIVA SOCIALE LA QUERCIA;Via Bebiana, 93 ;82020;62024;Circello;BN;0824937637;;coop_lacoccinella@hotmail.it;comunitalacoccinella@pec.it;Autorizzazione/Accreditamento (art.10 comma 2-punto 2-reg. 4/2010);AUTORIZZAZIONE/ACCREDITAMENTO;Prot. 0012003;2016-10-05 00:00:00.000;Confermata e inoltrata alla DG;2018-02-08 12:40:17.000
20;B05;SRS10;Comunità educativa a dimensione familiare (dai 4 ai 13 anni);La Coccinella;Corso Municipio n.65;82020;62024;Circello;BN;0824937762;0824937762;coop lacoccinella@hotmail.it;6;privata in affidamento;41,355261;14,807841;1144900626;Cooperativa Sociale ;La Quercia Società Cooperativa Sociale;Via Bebiana n.90;82020;62024;Circello;BN;0824937637;0824937637;coop_loscoiattolo@tiscali.it;;Autorizzazione;;4638;2012-05-02 00:00:00.000;Parzialmente compilata;
21;B05;SRS10;Comunità educativa a dimensione familiare (dai 4 ai 13 anni);LA COCCINELLA;C/da Granieri, snc;82024;62025;Colle Sannita;BN;0824937661;;coop_lacoccinella@hotmail.it;6;privata in affidamento;41,36469;14,833057;1144900626;;SOCIETA' COOPERATIVA SOCIALE LA QUERCIA;Via Bebiana, 93 ;82020;62024;Circello;BN;0824937637;;coop_lacoccinella@hotmail.it;comunitalacoccinella@pec.it;Accreditamento;ACCREDITAMENTO;Prot. 0010429;2015-08-03 00:00:00.000;Confermata e inoltrata alla DG;2018-02-08 12:40:17.000
22;B02;SRS11;Comunità alloggio (dai 13 ai 18 anni);FABER;VIA LO FIEGO N.29;82018;62012;Calvi;BN;0824338068;0824338068;coop.faber@libero.it;8;privata in affidamento;41,076829;14,870488;1152210629;COPERATIVA SOCIALE a r.l. O.n.l.u.s.;FABER;VIA MEOMARTINI, 28;82100;62008;Benevento;BN;0824338068;0824338068;coop.faber@libero.it;;Accreditamento;provvedimento di accreditamento;6087;2015-04-01 00:00:00.000;Confermata e inoltrata alla DG;2015-06-11 11:34:09.000
23;N01;SRS08;Comunità di pronta e transitoria accoglienza (dai 12 ai 18 anni);La Zattera;via Don Bosco 8;80141;63049;Napoli;NA;0817511340;;napolidonbosco@donboscoalsud.it;8;privata in affidamento;40,851775;14,268124;1267910634;;Istituto Salesiano "E.Menechini";via Don Bosco 8;80141;63049;Napoli;NA;0817511340;0817514981;napolidonbosco@donboscoalsud.it;;Autorizzazione;Disposizione Dirigenziale;51;2018-05-15 00:00:00.000;Confermata e inoltrata alla DG;2018-05-17 17:24:24.000
24;N01;SRS27;Struttura di secondo livello per MSNA (Minori stranieri non accompagnati 16-18 anni) ex DGRC n. 631 del 15/11/2016;Il Ponte;via Don Bosco 8;80141;63049;Napoli;NA;0817511340;;napolidonbosco@donboscoalsud;16;privata in affidamento;40,865257;14,269731;1267910634;;Istituto Salesiano "E.Menechini";via Don Bosco 8;80141;63049;Napoli;NA;0817511340;0817514981;napolidonbosco@donboscoalsud.it;;Autorizzazione;Disposizione Dirigenziale;12;2018-01-17 00:00:00.000;Confermata e inoltrata alla DG;2018-01-19 14:51:40.000
25;B01;SRS11;Comunità alloggio (dai 13 ai 18 anni);ALEPPO 5;VIA DELLE PUGLIE;82100;62008;Benevento;BN;08241900215;;consorziojonathan@gmail.com;8;privata in affidamento;41,126207;14,783719;1275590626;CONSORZIO;CONSORZIO JONATHAN;VIA CIRCUMVALLAZIONE;82011;62048;Paolisi;BN;0800598014;0823718066;consorziojonathan@gmail.com;;Autorizzazione/Accreditamento (art.10 comma 2-punto 2-reg. 4/2010);provvedimento dirigenziale;48901;2017-06-06 00:00:00.000;Confermata e inoltrata alla DG;2017-08-04 13:13:55.000
26;B03;SRS11;Comunità alloggio (dai 13 ai 18 anni);ALEPPO;Via Sant'Antonio Abate;82011;62070;Sant'Agata de' Goti;BN;0823718066;0823718066;consorziojonathan@gmail.com;7;privata in affidamento;41,084843;14,500748;1275590626;Cooperativa Sociale ;CONSORZIO JONATHAN;CONTRADA CA' DEL RE;82024;62025;Colle Sannita;BN;0824939045;0824939045;jonathan.amministrazione@live.it;;Autorizzazione;Provvedimento di autorizzazione;2393;2017-02-16 00:00:00.000;Confermata e inoltrata alla DG;2017-05-06 08:39:06.000
27;C01;SRS11;Comunità alloggio (dai 13 ai 18 anni);Comunità  Aleppo 6;Via Cattaneo n.12 - int.7;81100;61022;Caserta;CE;3457991530;;consorziojonathan@pec.it;8;privata in affidamento;41,085436;14,367553;1275590626;ComunitÃ  alloggio per minori;CONSORZIO JONATHAN ;VIA CIRCUMVALLAZIONE;82011;62048;Paolisi;BN;0800598014;0823718066;consorziojonathan@gmail.com;;Autorizzazione;determina dirigenziale;2;2018-01-11 00:00:00.000;Parzialmente compilata;
28;B04;SRS10;Comunità educativa a dimensione familiare (dai 4 ai 13 anni);TEMPI NUOVI;Via Kennedy, n.5;82030;62038;Limatola;BN;0823481705;0823481705;cooptempinuovi@alice.it;6;privata in affidamento;41,14247;14,39096;1311170623;SOCIETA' RESPONSABILITA' LIMITATA;COOPERATIVA SOCIALE TEMPI NUOVI;VIA SAN BIAGIO, 4;82030;62038;Limatola;BN;0823481705;0823481705;cooptempinuovi@alice.it;;Autorizzazione;Provvedimento;2692;2015-03-20 00:00:00.000;Confermata e inoltrata alla DG;2017-05-18 14:08:42.000
29;C01;SRS10;Comunità educativa a dimensione familiare (dai 4 ai 13 anni);LA SIRENA;VIA APPIA, 102;81020;61078;San Nicola la Strad;CE;0824/ 963351;;dante.barretta@tiscali.it;6;privata in affidamento;41,051564;14,337416;1327700629;SOCIETA' COOPERATIVA SOCIALE;LA SIRENA;VIA 9/3 , 19;82028;62057;San Bartolomeo in G;BN;0824/ 963351;;dante.barretta@tiscali.it;;Accreditamento;determina dirigenziale;16;2016-03-16 00:00:00.000;Confermata e inoltrata alla DG;2017-03-23 12:45:05.000
30;S08;SRS10;Comunità educativa a dimensione familiare (dai 4 ai 13 anni);Il Germoglio;Contrada Difesa;84043;65002;Agropoli;SA;3383820796;;dante.barretta@tiscali.it;6;privata in affidamento;40,348683;14,99122;1327700629;SOCIETA' COOPERATIVA SOCIALE;LA SIRENA;VIA 9/3 , 19;82028;62057;San Bartolomeo in G;BN;0824/ 963351;;dante.barretta@tiscali.it;;Accreditamento;Accreditamento;926;2017-03-04 00:00:00.000;Confermata e inoltrata alla DG;2018-02-16 12:14:32.000
31;S08;SRS10;Comunità educativa a dimensione familiare (dai 4 ai 13 anni);La Conchiglia;San Marco Soprano;84043;65002;Agropoli;SA;3383820796;;dante.barretta@tiscali.it;6;privata in affidamento;40,361203;14,999698;1327700629;SOCIETA' COOPERATIVA SOCIALE;LA SIRENA;VIA 9/3 , 19;82028;62057;San Bartolomeo in G;BN;0824/ 963351;;dante.barretta@tiscali.it;;Autorizzazione;Autorizzazione al funzionamento;5093;2017-11-24 00:00:00.000;Confermata e inoltrata alla DG;2018-05-30 11:55:41.000
32;B03;SRS10;Comunità educativa a dimensione familiare (dai 4 ai 13 anni);LAZZARO;VIA FIZZO n.4;82016;62043;Montesarchio;BN;0824833761;0824833761;comunitÃ .lazzaro@hotmail.it;4;privata in affidamento;41,069017;14,61984;1334010624;;COMUNITA' DI TIPO FAMILIARE "LAZZARO" DI DAMIANO MARIA ASSUNTA;Via Fizzo n.4;82016;62043;Montesarchio;BN;3335726330;0824833761;comunita_lazzaro@hotmail.it;;Accreditamento;accreditamento;17945;2017-11-03 00:00:00.000;Confermata e inoltrata alla DG;2017-11-03 12:15:16.000
33;B04;SRS11;Comunità alloggio (dai 13 ai 18 anni);Da Mary;Via Ortale n. 82;82030;62002;Amorosi;BN;0824972429;0824972429;rosadinverno@pec.it;3;privata in affidamento;41,198658;14,462699;1344410624; COOPERATIVA SOCIALE;COOPERATIVA SOCIALE ROSA D'INVERNO;Via Napoli n. 16;82030;62002;Amorosi;BN;0824972429;0824972429;rosadinverno@pec.it;;Autorizzazione;Provvedimento;7691;2015-09-11 00:00:00.000;Confermata e inoltrata alla DG;2017-05-11 11:55:35.000
34;B01;SRS10;Comunità educativa a dimensione familiare (dai 4 ai 13 anni);OASI NUVOLA;VIA M.R. DIONISI, N. 3;82010;62006;Arpaise;BN;0825993520;0825993520;oasiall@alice.it;6;privata in affidamento;41,02993;14,745309;1430260628;COOPERATIVA SOCIALE ;OASI NOVA;VIA MEOMARTINI, N. 43;82100;62008;Benevento;BN;082458027;0824270784;oasiall@alice.it;;Autorizzazione;;19931;2012-10-11 00:00:00.000;Parzialmente compilata;
35;N13;SRS10;Comunità educativa a dimensione familiare (dai 4 ai 13 anni);SANTA MARIA;CORSO LUIGI MANZI N. 87;80074;63019;Casamicciola Terme;NA;081994708;081994708;materna.casamicciola@alice.it;6;privata in affidamento;40,748959;13,909127;1437550633;;CONGREGAZIONE DISCEPOLE DI S. TERESA DEL BAMBINO  GESU';CORSO CAMPANO N.19;80019;63062;Qualiano;NA;0818181641;0818181338;maternacasamicciola@alice.it;santamariacasamicciola@pec.it;Accreditamento;DETERMINA;1396;2015-09-16 00:00:00.000;Confermata e inoltrata alla DG;2017-02-01 15:10:18.000
36;B02;SRS09;Casa famiglia ( da 0 a 18 anni);LA LUNA BLU;VIA COLLEPIANO N.17;82031;62076;Torrecuso;BN;0824878682;0824878682;cosimata@tin.it;4;privata in affidamento;41,210931;14,693102;1449390622;;CRESCERE INSIEME;VIA PESCO MANDRINO;82030;62015;Casalduni;BN;0824878682;0824878682;cosimata@tin.it;;Accreditamento;PROVVEDIMENTO ;10793;2016-05-31 00:00:00.000;Confermata e inoltrata alla DG;2017-05-19 11:53:28.000
37;A01;SRS10;Comunità educativa a dimensione familiare (dai 4 ai 13 anni);COMUNITA' EDUCATIVA A DIMENSIONE FAMILIARE GIUSEPPINA ARCUCCI;Via Mancini;83031;64005;Ariano Irpino;AV;0825871480;;piacasasantanna@libero.it;6;privata in affidamento;41,153356;15,089619;1460720582;;CONGREGAZIONE DELLE SUORE DELLO SPIRITO SANTO;ia Della Pineta Sacchetti, n. 227;168;58091;Roma;RM;0825871480;;piacasasantanna@libero.it;;Autorizzazione;determinazione;419;2017-12-18 00:00:00.000;Confermata e inoltrata alla DG;2018-01-23 13:07:00.000
38;B03;SRS10;Comunità educativa a dimensione familiare (dai 4 ai 13 anni);GOSPA;Via Pantanelle snc;82030;62014;Campoli del Monte T;BN;0824873194;0824873194;coop.soc.fatamorgana@pec.it;6;privata in affidamento;41,130873;14,647249;1508480629;;FATA MORGANA - SOCIETA' COOPERATIVA SOCIALE;Via Pantanelle snc;82030;62014;Campoli del Monte T;BN;0824873194;0824873194;coop.soc.fatamorgana@pec.it;;Accreditamento;Provvedimento di accreditamento;Prot. n. 21980;2015-12-11 00:00:00.000;Confermata e inoltrata alla DG;2015-12-11 13:21:02.000
39;C09;SRS11;Comunità alloggio (dai 13 ai 18 anni);SIMPSON'S HOUSE (BART);VIA PATIERNO;81056;61089;Sparanise;CE;0823874179;;COOPERATIVASOCIALEIPPOGRIFO@GMAIL.COM;8;privata in affidamento;41,187672;14,097023;1522770617;COOPERATIVA SOCIALE a.r.l.;COOP. SOCIALE  IPPOGRIFO;VIA F. COPPI N. 19;81034;61052;Mondragone;CE;0823971453;0823971453;coperativasocialeippogrifo@gmail.com;cooperativasocialeippogrifo@pec.cgn.it;Accreditamento;decreto;16777;2016-11-23 00:00:00.000;Confermata e inoltrata alla DG;2017-12-04 17:09:57.000
40;C10;SRS11;Comunità alloggio (dai 13 ai 18 anni);SIMPSON'S HOUSE;VIA F. COPPI N. 19;;61052;Mondragone;CE;0823971453;0823971453;NON PRESENTE;7;privata in affidamento;41,119416;13,88884;1522770617;COOPERATIVA SOCIALE a.r.l.;COOP. SOCIALE  IPPOGRIFO;VIA F. COPPI N. 19;81034;61052;Mondragone;CE;0823971453;0823971453;coperativasocialeippogrifo@gmail.com;cooperativasocialeippogrifo@pec.cgn.it;Autorizzazione;;16038-636;2011-09-19 00:00:00.000;Parzialmente compilata;
41;B02;SRS09;Casa famiglia ( da 0 a 18 anni);DONATELLA;VIA COLLEPIANO 17;82031;62076;Torrecuso;BN;3381239274;0824875237;casafamigliadonatell@libero.it;4;privata in affidamento;41,188674;14,678125;1525290621;;COOPERATIVA SOCIALE ONLUS PICA;VIA COLLEPIANO N.17 ;82031;62076;Torrecuso;BN;3381239274;0824875237;picacoop@pec.it;picacoop@pec.it;Autorizzazione;provvedimento autorizzativo;6079;2015-04-01 00:00:00.000;Confermata e inoltrata alla DG;2015-07-22 11:17:36.000
42;C09;SRS10;Comunità educativa a dimensione familiare (dai 4 ai 13 anni);LA CASA DI NONNA PUPETTA;VIA FUORI PORTA ROMA, 173;81043;61015;Capua;CE;0823621433;0823621433;LACASADINONNAPUPETTA@COOPAZZURRA.COM;6;privata in affidamento;41,117444;14,201023;1604300614;;SOCIETA' COOPERATIVA SOCIALE ONLUS "AZZURRA";PIAZZA GARIBALDI, 1;81100;61022;Caserta;CE;08231665419;08231665416;COOPAZZURRA@LEGALMAIL.EMAIL.IT;;Accreditamento;decreto;16203;2015-12-18 00:00:00.000;Confermata e inoltrata alla DG;2017-06-19 19:56:28.000
43;C08;SRS11;Comunità alloggio (dai 13 ai 18 anni);La Mongolfiera;Via Dante,N°17;81040;61032;Curti;CE;0823810310;0823810310;info@lamongolfieraonlus.org;7;privata in affidamento;41,076669;14,276187;1609380611;Cooperativa Sociale;La Mongolfiera Onlus;Via A. Stellato, N° 128;81054;61081;San Prisco;CE;0823810310;0823810310;coop.mongolfiera@libero.it;;Autorizzazione;Verbale Trasferimento sede;42491;2016-06-23 00:00:00.000;Confermata e inoltrata alla DG;2017-05-23 16:22:56.000
44;B01;SRS11;Comunità alloggio (dai 13 ai 18 anni);IL PICCOLO PRINCIPE;Via XXV Luglio, snc;82100;62008;Benevento;BN;0824317683;0824317683;alfacentauri1@pec.it;6;privata in affidamento;41,138529;14,774748;1621650629;;ALFA CENTAURI COOPERATIVA SOCIALE;VIALE MELLUSI N.36;82100;62008;Benevento;BN;082436178;082436178;piccoloprincipe_2015@virgilio.it;;Autorizzazione;Provvedimento dirigenziale;52583;2018-06-07 00:00:00.000;Confermata e inoltrata alla DG;2018-06-07 11:18:36.000
45;B02;SRS11;Comunità alloggio (dai 13 ai 18 anni);IL PICCOLO PRINCIPE;VIA SAN MARCIANO N.8;82018;62065;San Martino Sannita;BN;3397111906;082436178;ilpiccoloprincipe_2015@virgilio.it;8;privata in affidamento;41,068341;14,82769;1621650629;;ALFA CENTAURI COOPERATIVA SOCIALE;VIALE MELLUSI N.36;82100;62008;Benevento;BN;082436178;082436178;piccoloprincipe_2015@virgilio.it;;Autorizzazione;provvedimento autorizzativo ;8847;2015-05-15 00:00:00.000;Confermata e inoltrata alla DG;2015-07-03 10:46:48.000
46;B05;SRS11;Comunità alloggio (dai 13 ai 18 anni);ANTONIETTA GAGLIARDI;Viale S. Antonio, n. 20;82020;62069;Santa Croce del San;BN;0824950405;;comunitagagliardi@gmail.com;8;privata in affidamento;41,3875;14,73503;1627000621;;Social Care c.s. a r.l. ONLUS;Via Paduli - Buonalbergo, n. 6;82020;62045;Paduli;BN;0824928287;;coopsocialcare@pec.it;;Autorizzazione/Accreditamento (art.10 comma 2-punto 2-reg. 4/2010);AUTORIZZAZIONE/ACCREDITAMENTO;Prot. 0003358;2016-03-18 00:00:00.000;Confermata e inoltrata alla DG;2018-02-08 12:40:17.000
47;C01;SRS10;Comunità educativa a dimensione familiare (dai 4 ai 13 anni);Sinfonia;Via Cosenza n.3;81020;61078;San Nicola la Strad;CE;08231454646;;sinfoniaonlus@legalposta.it;6;privata in affidamento;41,051528;14,329681;1635660622;;Sinfonia;Via S.rocco n.13;82015;62028;Durazzano;BN;08231454646;;sinfoniaonlus@legalposta.it;sinfoniaonlus@legalposta.it;Accreditamento;determina dirigenziale;8;2016-02-04 00:00:00.000;Confermata e inoltrata alla DG;2017-03-23 12:45:05.000
48;B05;SRS10;Comunità educativa a dimensione familiare (dai 4 ai 13 anni);LA LIBELLULA;Via XXV Aprile, n. 9;82020;62024;Circello;BN;0824937696;;cooplalibellula@yahoo.it;6;privata in affidamento;41,356315;14,811438;1639720620;;CLOE s.c.s.;Vico Rotto Iardini, n. 19;82020;62024;Circello;BN;0824937696;;coopcloe@pec.it;;Autorizzazione/Accreditamento (art.10 comma 2-punto 2-reg. 4/2010);AUTORIZZAZIONE/ACCREDITAMENTO;Prot. 0007251;2016-06-15 00:00:00.000;Confermata e inoltrata alla DG;2018-02-08 12:40:17.000
49;B03;SRS11;Comunità alloggio (dai 13 ai 18 anni);PIANO DEGLI ANGELI;Via Monteoliveto snc;82011;62001;Airola;BN;3318022488;;coop.pianodegliangeli@pec.it;8;privata in affidamento;41,055952;14,559701;1666930621;;PIANO DEGLI ANGELI;Via Lavinia n.2;82016;62043;Montesarchio;BN;3318022488;;coop.pianodegliangeli@pec.it;;Autorizzazione;Provvedimento di autorizzazione;7910;2017-05-19 00:00:00.000;Confermata e inoltrata alla DG;2017-05-23 11:58:47.000
50;A04;SRS11;Comunità alloggio (dai 13 ai 18 anni);Comunità Alloggio per minori "AMISTA'";Via Cesinola, 52;83018;64083;San Martino Valle C;AV;0824848270;0824848778;comunita.amista@virgilio.it;8;privata in affidamento;41,059825;14,648178;1678960624;;La Rosa Coop. Soc. Onlus;Via Pagliarone n. 91;82016;62043;Montesarchio;BN;0825848778;0825848778;larosa.cooperativasociale@pec.buffetti.it;;Accreditamento;Provvedimento di Accreditamento;42795;2017-04-27 00:00:00.000;Confermata e inoltrata alla DG;2017-05-05 12:18:43.000
51;S05;SRS11;Comunità alloggio (dai 13 ai 18 anni);TUTTI A CASA;Via Arturo Capone 1;84100;65116;Salerno;SA;089331343;089331343;socialeprometeo82@hotmail.com;8;privata in affidamento;40,682441;14,768096;1732420656;COOPERATIVA SOCIALE;PROMETEO 82;Via Trento 147;84100;65116;Salerno;SA;089331343;089331343;socialeprometeo82@hotmail.com;;Autorizzazione;;99288;2012-05-25 00:00:00.000;Parzialmente compilata;
52;S05;SRS10;Comunità educativa a dimensione familiare (dai 4 ai 13 anni);GHIBLI;via M.Conforti 13;84100;65116;Salerno;SA;089331343;089331343;socialeprometeo82@hotmail.com;6;privata in affidamento;40,679097;14,772628;1732420656;COOPERATIVA SOCIALE;PROMETEO 82;Via Trento 147;84100;65116;Salerno;SA;089331343;089331343;socialeprometeo82@hotmail.com;;Autorizzazione;;99290;2012-05-25 00:00:00.000;Parzialmente compilata;
53;C04;SRS11;Comunità alloggio (dai 13 ai 18 anni);Comunità Alloggio IRIDE;Via V. Severino n.2/4;;61009;Caiazzo;CE;0823862468;0823862468;arcobaleno.caiazzo@virgilio.it;8;privata in affidamento;41,176895;14,368937;2093670616;Società Cooperativa Sociale a.r.l.;Soc. Coop. Sociale Arcobaleno a.r.l. ;Via Villanova, n. 62;81013;61009;Caiazzo;CE;0823862468;0823862468;arcobaleno.caiazzo@virgilio.it;arcobaleno.caiazzo@pec.it;Autorizzazione;;9309;2012-05-28 00:00:00.000;Parzialmente compilata;
54;A02;SRS11;Comunità alloggio (dai 13 ai 18 anni);"Venerabile Padre Antonio Vincenzo Gallo";via Acconciatoia,11;83013;64054;Monteforte Irpino;AV;0825753111;0825753111;gerearga.spina@alice.it;8;privata in affidamento;40,898595;14,70699;2115810646;Cooperativa Sociale;Spes Società Cooperativa Sociale a.r.l.;Via Trinità, 14;83100;64008;Avellino;AV;0825793074;0825793074;cooperativaspes@libero.it;cooperativaspes@pec.it;Autorizzazione;Provvedimento di autorizzazione;7552011;2011-06-09 00:00:00.000;Confermata e inoltrata alla DG;2017-05-16 16:46:06.000
55;A05;SRS11;Comunità alloggio (dai 13 ai 18 anni);Comunità Alloggio "ARCOBALENO";Via Teodoro Mommsen, 21;83042;64006;Atripalda;AV;0825622750-784082;0825622750;info@cooperativalagoccia.it;8;privata in affidamento;40,915766;14,823632;2136070642;Coop. Sociale  ;"La Goccia";Via Piave 29/d;83100;64008;Avellino;AV;0825784082;0825784082;info@cooperativalagoccia.it;;Autorizzazione/Accreditamento (art.10 comma 2-punto 2-reg. 4/2010);nota;2170/84-2171-85;2015-07-10 00:00:00.000;Confermata e inoltrata alla DG;2015-07-27 17:45:59.000
56;A05;SRS11;Comunità alloggio (dai 13 ai 18 anni);Comunità alloggio "IL MARSUPIO";Via Teodoro Mommsen, 35;83042;64006;Atripalda;AV;0825622750-784082;0825622750;info@cooperativalagoccia.it;8;privata in affidamento;40,915766;14,823632;2136070642;Coop. Sociale  ;"La Goccia";Via Piave 29/d;83100;64008;Avellino;AV;0825784082;0825784082;info@cooperativalagoccia.it;;Autorizzazione/Accreditamento (art.10 comma 2-punto 2-reg. 4/2010);nota;2172/86-2173/87;2015-07-10 00:00:00.000;Confermata e inoltrata alla DG;2015-07-27 17:48:56.000
57;C07;SRS09;Casa famiglia ( da 0 a 18 anni);S. DANIELE COMBONI;VIA C. PAVESE N. 8 ;81030;61054;Parete;CE;0815030080;08119663676;SANDANIELECOMBONI@VIRGILIO.IT;6;privata in affidamento;40,961335;14,19167;2368280646;;COOP. SOCIALE S. DANIELE COMBONI ONLUS;VIA FRATELLI BISOGNO 27;83100;64008;Avellino;AV;0815030080;0815030080;SANDANIELECOMBONI@VIRGILIO.IT;;Accreditamento;DETERMINAZIONE DI ACCREDITAMENTO;62;2017-05-11 00:00:00.000;Completa;
58;B04;SRS11;Comunità alloggio (dai 13 ai 18 anni);LA FABBRICA DEL SORRISO;VIA G. GARIBALDI, N. 29;82030;62038;Limatola;BN;0823481705;0823481705;cooptempinuovi@alice.it;8;privata in affidamento;41,144165;14,392337;2393510645;Cooperativa Sociale ;MEDLIFE ;Via Tagliamento, 18;83100;64008;Avellino;AV;0824815211;;coopitaca@libero.it;;Autorizzazione;Autorizzazione;2692;2015-03-20 00:00:00.000;Confermata e inoltrata alla DG;2017-05-19 15:24:41.000
59;N20;SRS10;Comunità educativa a dimensione familiare (dai 4 ai 13 anni);Shalom;Via Marsala n.22;80011;63001;Acerra;NA;0815201371;0825995128;paola.zollo@libero.it;6;privata in affidamento;40,937305;14,36835;2401630641;Società Cooperativa Sociale;Rocca Service Onlus;Via Vittorio Veneto n.76;83016;64078;Roccabascerana;AV;0815201371;0825995128;paola.zollo@libero.it;;Accreditamento;determina;151;2015-02-02 00:00:00.000;Confermata e inoltrata alla DG;2015-02-11 16:20:23.000
60;S05;SRS10;Comunità educativa a dimensione familiare (dai 4 ai 13 anni);TOMMASO M.FUSCO;via Rocco Cocchia n.37;84129;65116;Salerno;SA;089752881;089752994;c.famiglia@tiscali.it;6;privata in affidamento;40,663997;14,797263;2458110588;Istituto Religioso;Figlie della Carità del Preziosissimo Sangue;via Vigna Fabbri 45;;58091;Roma;RM;67803394;67821523;redazione@nuovispazi.net;;Autorizzazione;;27;2012-01-02 00:00:00.000;Parzialmente compilata;
61;C10;SRS10;Comunità educativa a dimensione familiare (dai 4 ai 13 anni);A.M.A.;via Domitiana, 538/ Km 33,900;81030;61027;Castel Volturno;ce;0823852324;0823762120;comunitama@libero.it;6;privata in affidamento;41,034785;13,942285;2485200584;Ente iscr.reg.persone giuridiche Prefet. Roma n° 1052/1987;A.M.A.;Via Cassia, 1826;;58091;Roma;RM;630891341;630892079;nd;;Autorizzazione;;31127;2012-06-14 00:00:00.000;Parzialmente compilata;
62;C08;SRS09;Casa famiglia ( da 0 a 18 anni);Casa Famiglia Augusta;Via Dante, N° 32;81040;61032;Curti;CE;0823794681;0823794681;coopmaisoli@libero.it;7;privata in affidamento;41,076703;14,275623;2496810611;;Cooperativa Sociale Mai Soli;Via Dante, N° 32;81040;61032;Curti;CE;0823794681;0823794681;coopmaisoli@libero.it;coopmaisoli@pec.it;Autorizzazione/Accreditamento (art.10 comma 2-punto 2-reg. 4/2010);Verbale;17/2015;2015-06-18 00:00:00.000;Confermata e inoltrata alla DG;2015-06-25 11:48:50.000
63;N23;SRS11;Comunità alloggio (dai 13 ai 18 anni);Casa Coletta;Via dei Mille, 118;80035;63050;Nola;NA;0818235122;0818235122;coccinella.edu@libero.it;8;privata in affidamento;40,929104;14,535985;2500280645;Cooperativa Sociale a r.l.;La Clessidra;Via Nazionale, 58;83024;64054;Monteforte Irpino;AV;0825900997;0825900997;coccinella.edu@libero.it;laclessidraonlus@pec.it;Autorizzazione;Determina dirigenziale;761;2015-06-22 00:00:00.000;Confermata e inoltrata alla DG;2015-06-24 11:35:40.000
64;C05;SRS10;Comunità educativa a dimensione familiare (dai 4 ai 13 anni);la Casa delle Rose;Marcianise;81025;61049;Marcianise;Ce;0823839560;0823839560;casadellerose@libero.it;6;privata in affidamento;41,031087;14,299542;2563490586;Cooperativa sociale - ONLUS;La Casa delle Rose;via Marsico Nuovo,35;;58091;Roma;RM;67188543;;casadellerose@libero.it;;Autorizzazione;;321;2012-10-30 00:00:00.000;Parzialmente compilata;
65;A03;SRS10;Comunità educativa a dimensione familiare (dai 4 ai 13 anni);Comunità  alloggio Sant'Andrea di Conza;Via G. D'Annunzio, 143;83053;64089;Sant'Andrea di Conz;AV;089876135;;geasoccoop@legalmail.it;6;privata in affidamento;40,842116;15,366307;2585500651;Società Cooperativa Sociale Onlus;Cooperativa Sociale GEA;Piazza Corsano n. 8;84010;65151;Tramonti;SA;089876135;089856441;info@coopgea.org;geasoccoop@legalmail.it;Accreditamento;Decreto;17;2017-11-06 00:00:00.000;Confermata e inoltrata alla DG;2017-11-22 09:13:33.000
66;N16;SRS10;Comunità educativa a dimensione familiare (dai 4 ai 13 anni);IL BUCANEVE;VIA CASAMARTINO 31;80017;63045;Melito di Napoli;NA;0817114612;0817114612;info.bucaneve2009@libero.it;6;privata in affidamento;40,922348;14,225615;2592050617;;COOPERATIVA SOCIALE "PROGETTO VITA";VIA ROMA 18;81030;61046;Lusciano;CE;0817114612;0817114612;info.bucaneve2009@libero.it;progettovita.soc.coop@pec.it;Autorizzazione;DECRETO;7;2015-05-28 00:00:00.000;Completa;
67;C10;SRS09;Casa famiglia ( da 0 a 18 anni);CASA FAMIGLIA "SERENA";VIA DOMIZIANA N. 652;81034;61052;Mondragone;CE;0823856262;0823856262;GISELE.LUCIANO@TIN.IT;6;privata in affidamento;41,120648;13,872947;2592670612;COOPERATIVA SOCIALE ONLUS;CENTRO LAILA COOP. SOC. ONLUS a.r.l.;VIA F. BRUNELLESCHI N. 86;81030;61027;Castel Volturno;CE;0823856262;;GISELE.LUCIANO@TIN.IT;;Autorizzazione;;15540-624;2010-08-10 00:00:00.000;Parzialmente compilata;
68;A01;SRS11;Comunità alloggio (dai 13 ai 18 anni);La Collina Verde;Via S. Angelo, 310 ;83036;64050;Mirabella Eclano;AV;0825438105;0825438105;laconchiglia@legalmail.it;7;privata in affidamento;41,046933;15,005851;2614360648;Società Cooperativa;Società Cooperativa Sociale LA CONCHIGLIA;Via Municipio, 134;83036;64050;Mirabella Eclano;AV;0825438105;0825438105;collinaverde@virgilio.it;;Autorizzazione;Determinazione;114;2015-07-14 00:00:00.000;Confermata e inoltrata alla DG;2015-07-23 13:53:39.000
69;A03;SRS11;Comunità alloggio (dai 13 ai 18 anni);Ali per Volare;Via Sant'Antonio snc;83047;64044;Lioni;AV;3939170549;;cooperativa.piramide@legalmail.it;8;privata in affidamento;40,874767;15,188814;2617670647;;Piramide Cooperativa Sociale Onlus;Via Vadantico snc;83040;64023;Castelfranci;AV;3939170549;;cooperativa.piramide@legalmail.it;;Accreditamento;Decreto;19;2017-11-28 00:00:00.000;Confermata e inoltrata alla DG;2017-12-04 09:10:37.000
70;C01;SRS11;Comunità alloggio (dai 13 ai 18 anni);Casa Ariel;Via Ferrarecce n.157;81100;61022;Caserta;CE;0823444637;;caserta@cidisonlus.org;8;privata in affidamento;41,066336;14,340848;2695240545;Onlus;Centro Informazione Documentazione e Iniziative per lo Sviluppo "CIDIS";Via Della Viola n.1;6122;54039;Perugia;PG;3474804061;755735673;caserta@cidisonlus.org;perugia@cidisonlus.org;Autorizzazione;determina dirigenziale;40;2016-10-31 00:00:00.000;Confermata e inoltrata alla DG;2017-03-23 12:45:05.000
71;C04;SRS11;Comunità alloggio (dai 13 ai 18 anni);Casa Mia Comunità alloggio;Via Roma n.13;81010;61063;Prata Sannita;CE;755720895;755735673;perugia@cidisonlus.org;8;privata in affidamento;41,430353;14,203349;2695240545;Onlus;Centro Informazione Documentazione e Iniziative per lo Sviluppo "CIDIS";Via Della Viola n.1;6122;54039;Perugia;PG;3474804061;755735673;caserta@cidisonlus.org;perugia@cidisonlus.org;Autorizzazione;Provvedimento;42005;2015-02-10 00:00:00.000;Confermata e inoltrata alla DG;2017-06-05 10:10:33.000
72;C01;SRS27;Struttura di secondo livello per MSNA (Minori stranieri non accompagnati 16-18 anni) ex DGRC n. 631 del 15/11/2016;Casa Teranga;Via Tescione n.68;81100;61022;Caserta;CE;0823444637;;cidisonlus@lamiapec.it;10;privata in affidamento;41,085436;14,367553;2695240545;Com. allogg 2 accoglienza minori stran. non accomp;Casa Teranga;Via Della Viola n.1;6122;54039;Perugia;;3474804061;755735673;caserta@cidisonlus.org;perugia@cidisonlus.org;Autorizzazione;autorizzazione;6;2017-05-13 00:00:00.000;Parzialmente compilata;
73;C08;SRS11;Comunità alloggio (dai 13 ai 18 anni);Piccole stelle;VIA C.Battisti N°58, II trav.;81046;61042;Grazzanise;CE;0823991721;0823991721;comunita@alice.it;6;privata in affidamento;41,09084;14,103254;2738280615;COOPERATIVA SOCIALE;AMBIENTE 2000;VIA ALBERO LUNGO N. 26;81046;61042;Grazzanise;CE;0823991721;0823991721;comunita@alice.it   ;2000ambiente@pec.it;Accreditamento;provvedimento;43282;2018-05-30 00:00:00.000;Confermata e inoltrata alla DG;2018-06-05 16:04:00.000
74;S06;SRS11;Comunità alloggio (dai 13 ai 18 anni);LETIZIA;Via Case Sparse,49;84084;65052;Fisciano;Sa;0899358910;0899358805;cooplasantommaso@pec.it-coop.soc.lasantommaso@virgilio.it;8;privata in affidamento;40,773194;14,796561;2744480647;COOPERATIVA SOCIALE;Cooperativa Sociale ONLUS " La San Tommaso";Via Vaccheria, 22 ;83026;64061;Montoro;AV;0825597081;08251800534;cooplasantommaso@pec.it;;Autorizzazione;;131;2014-01-20 00:00:00.000;Parzialmente compilata;
75;A04;SRS11;Comunità alloggio (dai 13 ai 18 anni);ESTIA;C.da Bagnoli 31;83100;64008;Avellino;AV;0825681505;0825681505;cooperativa_estia@libero.it;8;privata in affidamento;40,895;14,759085;2804340640;;Cooperativa sociale Per Aspera ad Astra;Via Nazionale n. 137;83013;64049;Mercogliano;AV;0825681505;0825681505;cooperativa_estia@libero.it;cooperativasocialeaspera@pec.it;Accreditamento;Provvedimento di Accreditamento;42401;2016-02-03 00:00:00.000;Confermata e inoltrata alla DG;2017-04-07 09:27:25.000
76;C04;SRS11;Comunità alloggio (dai 13 ai 18 anni);COMUNITA ALLOGGIO CENTRO DI ACCOGLIENZA EMILIANO DE MARCO;STRADA PROVINCIALE 331;81016;61057;Piedimonte Matese;CE;0823543250;0823543250;acolambassi@serihg.com;5;privata in affidamento;41,35403;14,354495;2838210611;SOCIETA COOPERATIVA SOCIALE a r.l.;CENTRO DI ACCOGLIENZA EMILIANO DE MARCO Soc. Coop.;VIA V. DI MATTEO N. 14;;61057;Piedimonte Matese;CE;0823543250;0823543250;acolambassi@serihg.com;;Autorizzazione;;14204;2011-08-01 00:00:00.000;Parzialmente compilata;
77;C07;SRS10;Comunità educativa a dimensione familiare (dai 4 ai 13 anni);IL VECCHIO E IL BAMBINO;VIA VERDI N. 40;81030;61077;San Marcellino;CE;0818121652;0818121652;cooperativa.agora@libero.it;6;privata in affidamento;40,996423;14,171517;2851110615;COOPERATIVA SOCIALE;AGORA' COOPERATIVA SOCIALE ONLUS;VIA DELL'ARCHEOLOGIA N. 54;81031;61005;Aversa;CE;0815044412;0818113627;cooperativa.agora@libero.it;;Accreditamento;DETERMINAZIONE DI ACCREDITAMENTO;84;2015-09-08 00:00:00.000;Completa;
78;B03;SRS09;Casa famiglia ( da 0 a 18 anni);NEVERLAND;Via Benevento, n.24;82016;62043;Montesarchio;BN;08241922378 ;08231165416;neverlandcasafamiglia@gmail.com;5;privata in affidamento;41,061533;14,642372;2855340614;COOPERATIVA SOCIALE;C.A.O.S. SOCIETA' COOPERATIVA SOCIALE ;Via P. Borsellino, n. 148;80025;63020;Casandrino;NA;08231665419;08231665416;coopcaos@legal.email.it;coopcaos@legal.email.it;Autorizzazione/Accreditamento (art.10 comma 2-punto 2-reg. 4/2010);Provvedimento di Autorizzazione/Accreditamento;17195;2016-11-08 00:00:00.000;Confermata e inoltrata alla DG;2016-11-24 16:24:49.000
79;B03;SRS11;Comunità alloggio (dai 13 ai 18 anni);I FOLLETTI;Via Vairano, n. 13;82013;62009;Bonea;BN;0824847547;0824847547;ifolletticom@libero.it;8;privata in affidamento;41,075203;14,619177;2855340614;COOPERATIVA SOCIALE;C.A.O.S. SOCIETA' COOPERATIVA SOCIALE ;Via P. Borsellino, n. 148;80025;63020;Casandrino;NA;08231665419;08231665416;coopcaos@legal.email.it;coopcaos@legal.email.it;Accreditamento;Provvedimento di accreditamento;5955;2015-02-19 00:00:00.000;Confermata e inoltrata alla DG;2015-03-02 08:44:34.000
80;N17;SRS11;Comunità alloggio (dai 13 ai 18 anni);COMUNITA' ALLOGGIO "I BRAVI";VIA BORSELLINO 148;80025;63020;Casandrino;NA;0823326220;0823326220;coopcaos@legal.email.it;8;privata in affidamento;40,925513;14,248599;2855340614;COOPERATIVA SOCIALE;C.A.O.S. SOCIETA' COOPERATIVA SOCIALE ;Via P. Borsellino, n. 148;80025;63020;Casandrino;NA;08231665419;08231665416;coopcaos@legal.email.it;coopcaos@legal.email.it;Accreditamento;provvedimento di accreditamento;941;2015-07-14 00:00:00.000;Confermata e inoltrata alla DG;2017-05-22 11:34:07.000
81;N17;SRS11;Comunità alloggio (dai 13 ai 18 anni);COMUNITA' ALLOGGIO "IL SORRISO DI RITA";VIA G. FALCONE 35;80025;63020;Casandrino;NA;0823326220;0823326220;coopcaos@legal.email.it;8;privata in affidamento;40,93494;14,244338;2855340614;COOPERATIVA SOCIALE;C.A.O.S. SOCIETA' COOPERATIVA SOCIALE ;Via P. Borsellino, n. 148;80025;63020;Casandrino;NA;08231665419;08231665416;coopcaos@legal.email.it;coopcaos@legal.email.it;Accreditamento;provvedimento di accreditamento;943;2015-07-14 00:00:00.000;Confermata e inoltrata alla DG;2017-06-08 17:22:04.000
82;N17;SRS11;Comunità alloggio (dai 13 ai 18 anni);COMUNITA' ALLOGGIO "MANI IN ALTO";via ANTONIO CAMPOFREDA 44;80025;63020;Casandrino;NA;0813653623;0813653623;coopcaos@legal.email.it;8;privata in affidamento;40,937189;14,245957;2855340614;COOPERATIVA SOCIALE;C.A.O.S. SOCIETA' COOPERATIVA SOCIALE ;Via P. Borsellino, n. 148;80025;63020;Casandrino;NA;08231665419;08231665416;coopcaos@legal.email.it;coopcaos@legal.email.it;Accreditamento;provvedimento di accreditamento;946;2015-07-14 00:00:00.000;Confermata e inoltrata alla DG;2017-05-22 11:51:05.000
83;N17;SRS11;Comunità alloggio (dai 13 ai 18 anni);COMUNITA' ALLOGGIO "STATE BUONI SE POTETE";via PADRE CHERUBINO CAIAZZO N. 6;80025;63020;Casandrino;NA;0813650181;0813650181;coopcaos@legal.email.it;8;privata in affidamento;40,93522;14,24593;2855340614;COOPERATIVA SOCIALE;C.A.O.S. SOCIETA' COOPERATIVA SOCIALE ;Via P. Borsellino, n. 148;80025;63020;Casandrino;NA;08231665419;08231665416;coopcaos@legal.email.it;coopcaos@legal.email.it;Accreditamento;provvedimento di accreditamento;949;2015-07-14 00:00:00.000;Confermata e inoltrata alla DG;2017-05-22 11:47:27.000
84;N17;SRS11;Comunità alloggio (dai 13 ai 18 anni);LA CASA DI FRANCESCO;Via P. Borsellino, n. 148;80025;63020;Casandrino;NA;0823326220;0823326220;coopcaos@legal.email.it;8;privata in affidamento;40,925513;14,248599;2855340614;COOPERATIVA SOCIALE;C.A.O.S. SOCIETA' COOPERATIVA SOCIALE ;Via P. Borsellino, n. 148;80025;63020;Casandrino;NA;08231665419;08231665416;coopcaos@legal.email.it;coopcaos@legal.email.it;Accreditamento;provvedimento di accreditamento;944;2015-07-14 00:00:00.000;Confermata e inoltrata alla DG;2017-05-22 11:17:54.000
85;N17;SRS11;Comunità alloggio (dai 13 ai 18 anni);PICCOLI PASSI;VIA GIOVANNI FALCONE N. 19;80025;63020;Casandrino;NA;0813653623;0813653623;info@coopcaos.org;8;privata in affidamento;40,935018;14,245079;2855340614;COOPERATIVA SOCIALE;C.A.O.S. SOCIETA' COOPERATIVA SOCIALE ;via nazionale appia n. 13;81022;61018;Casagiove;CE;0818392929;08231665416;v.e.t.a.coop.sociale@pec.it;coopcaos@legal.email.it;Autorizzazione;autorizzazione;1348;2018-04-27 00:00:00.000;Confermata e inoltrata alla DG;2018-04-27 13:41:51.000
86;N17;SRS11;Comunità alloggio (dai 13 ai 18 anni);I CARE;Via Spagnuolo n. 24;80020;63033;Frattaminore;NA;08231665419;08231665416;coopcaos@legal.email.it;8;privata in affidamento;40,96027;14,277647;2855340614;COOPERATIVA SOCIALE;C.A.O.S. SOCIETA' COOPERATIVA SOCIALE ;via nazionale appia n. 13;81022;61018;Casagiove;CE;0818392929;08231665416;v.e.t.a.coop.sociale@pec.it;coopcaos@legal.email.it;Autorizzazione;autorizzazione A SEGUITO DI TRASFERIMENTO SEDE;811;2018-02-15 00:00:00.000;Confermata e inoltrata alla DG;2018-04-27 13:44:29.000
87;B03;SRS10;Comunità educativa a dimensione familiare (dai 4 ai 13 anni);Costruttivamente;Via Vairano, n. 13;82013;62009;Bonea;BN;0824894332;0823326220;costruttivamentecom@libero.it;6;privata in affidamento;41,075203;14,619177;2855340614;COOPERATIVA SOCIALE;C.A.O.S. SOCIETA' COOPERATIVA SOCIALE ;Via P. Borsellino, n. 148;80025;63020;Casandrino;NA;08231665419;08231665416;coopcaos@legal.email.it;coopcaos@legal.email.it;Accreditamento;Provvedimento di accreditamento;5957;2015-02-19 00:00:00.000;Confermata e inoltrata alla DG;2015-03-02 08:37:30.000
88;N17;SRS10;Comunità educativa a dimensione familiare (dai 4 ai 13 anni);COMUNITA' educativa di tipo familiare "LA GRANDE CASA";VIA CURIEL 9;80020;63033;Frattaminore;NA;0823326220;0823326220;coopcaos@legal.email.it;6;privata in affidamento;40,94899;14,296779;2855340614;COOPERATIVA SOCIALE;C.A.O.S. SOCIETA' COOPERATIVA SOCIALE ;Via P. Borsellino, n. 148;80025;63020;Casandrino;NA;08231665419;08231665416;coopcaos@legal.email.it;coopcaos@legal.email.it;Accreditamento;provvedimento di accreditamento;945;2015-07-14 00:00:00.000;Confermata e inoltrata alla DG;2017-05-22 13:57:38.000
89;C06;SRS11;Comunità alloggio (dai 13 ai 18 anni);COMUNITA' ALLOGGIO PER MINORI - MILLESOLI;VIA F. FELLINI 25;81030;61090;Succivo;CE;0818916228;0818916228;info@coopcesantorf.com;8;privata in affidamento;40,946354;14,225506;2887060610;;CE.S.ANT.ORF;CORSO GIANNONE, 86;81100;61022;Caserta;CE;08233262120;08233262120;info@coopcesantorf.com;;Autorizzazione;PROVVEDIMENTO;3/BIS;2015-01-08 00:00:00.000;Confermata e inoltrata alla DG;2015-07-07 13:58:26.000
90;C04;SRS11;Comunità alloggio (dai 13 ai 18 anni);COMUNITA' ALLOGGIO PER MINORI "PROGETTO AMALIA 1";VIA PIZZONE MONTICELLO SNC;81016;61057;Piedimonte Matese;CE;3393275715 - 0823543191;0823543191;info@lifecommunity.iy;8;privata in affidamento;41,355182;14,370739;2974920619;SOCIETA' "L.C. MATESE" a.r.l.;L.C. MATESE a.r.l.;VIA PIZZONE MONTICELLO SNC;81016;61057;Piedimonte Matese;CE;3393275715 - 0823543191;0823543191;info@lifecommunity.it;amministrazionelcm@me.com;Autorizzazione;;9175;2011-05-16 00:00:00.000;Parzialmente compilata;
91;C04;SRS11;Comunità alloggio (dai 13 ai 18 anni);Progetto Amalia 3;Via Sala snc;81016;61080;San Potito Sannitic;CE;0823543191;0823543191;amministrazionelcm@me.com;8;privata in affidamento;41,349606;14,419932;2974920619;SOCIETA' "L.C. MATESE" a.r.l.;L.C. MATESE a.r.l.;VIA PIZZONE MONTICELLO SNC;81016;61057;Piedimonte Matese;CE;3393275715 - 0823543191;0823543191;info@lifecommunity.it;amministrazionelcm@me.com;Autorizzazione;provvedimento;41760;2014-11-14 00:00:00.000;Confermata e inoltrata alla DG;2017-06-05 11:52:40.000
92;N20;SRS11;Comunità alloggio (dai 13 ai 18 anni);Samuel;C.so Garibaldi, n.7;80011;63001;Acerra;NA;0815203554;0815203554;m.parsifal@libero.it;8;privata in affidamento;40,944109;14,371438;2998501213;Società Cooperativa;Cooperativa sociale Parsifal;Corso Garibaldi, 7;80011;63001;Acerra;NA;0818857179;0815203554;m.parsifal@libero.it;;;;;;Confermata e inoltrata alla DG;2015-07-13 13:21:39.000
93;N20;SRS10;Comunità educativa a dimensione familiare (dai 4 ai 13 anni);Zorba;C.so Garibaldi, n.7;80011;63001;Acerra;NA;081887179;0818857179;m.parsifal@libero.it;6;privata in affidamento;40,942251;14,37297;2998501213;Società Cooperativa;Cooperativa sociale Parsifal;Corso Garibaldi, 7;80011;63001;Acerra;NA;0818857179;0815203554;m.parsifal@libero.it;;Accreditamento;DETERMINA;1707;2014-12-17 00:00:00.000;Confermata e inoltrata alla DG;2015-03-10 15:43:01.000
94;C09;SRS11;Comunità alloggio (dai 13 ai 18 anni);FAMIGLIA IRENE;VIA SANTA MARIA LA FOSSA 28/BIS;81043;61015;Capua;CE;0823620386;;INFO@CITTAIRENE.IT;8;privata in affidamento;41,100569;14,200657;3009970611;;CITTA' IRENE ;CORSO GRAN PRIORATO DI MALTA, 33;81043;61015;Capua;CE;0823620386;;INFO@CITTAIRENE.IT;CITTAIRENE@PEC.IT;Accreditamento;decreto;16202;2015-12-18 00:00:00.000;Confermata e inoltrata alla DG;2017-12-04 18:38:36.000
95;C01;SRS10;Comunità educativa a dimensione familiare (dai 4 ai 13 anni);Sorriso;Via Mendel n.53;81100;61022;Caserta;CE;0823200017;;fondgferraro@tin.it;6;privata in affidamento;41,072022;14,365656;3023800612;Fondazione Giuseppe Ferraro Onlus;Fondazione Giuseppe Ferraro Onlus;Viale Europa n.13;81024;61048;Maddaloni;CE;0823200017;;fondgferraro@tin.it;;Autorizzazione;trasferimento sede operativa;n.3;2018-01-11 00:00:00.000;Completa;2017-03-23 12:45:05.000
96;S08;SRS11;Comunità alloggio (dai 13 ai 18 anni);La Sorgente;via Provinciale snc;84060;65091;Perdifumo;SA;0974845256;0974845256;comunità.lasorgente@libero.it;8;privata in affidamento;40,266309;15,017566;3041580659;Associazione  A.I.A.S. sez " Agropoli- Cilento";AIAS Sezione Agropoli Cilento;via Provinciale  snc;84060;65091;Perdifumo;SA;0974845256;0974845256;comunità.lasorgente@libero.it;;Autorizzazione;Autorizzazione al funzionamento;2372;2017-06-12 00:00:00.000;Confermata e inoltrata alla DG;2018-02-20 13:14:57.000
97;S04;SRS11;Comunità alloggio (dai 13 ai 18 anni);Casa di Kim;Via Colombo n. 28;84092;65158;Bellizzi;SA;082853207;082853207;coop.sorriso@tin.it;6;privata in affidamento;40,62018;14,943991;3067880652;Società Cooperativa di Solidarietà Sociale Sorriso;SORRISO;Via Manganario n. 31;84126;65116;Salerno;SA;3209329543;;coop.sorriso@tin.it;coopsorriso@pec.confcooperative.it;Autorizzazione;;4994;2011-12-07 00:00:00.000;Completa;
98;S10;SRS11;Comunità alloggio (dai 13 ai 18 anni);Don Ciro Marino;Via Castello n. 25;84030;65094;Petina;SA;3209329543;;coop.sorriso@tin.it;6;privata in affidamento;40,533582;15,37482;3067880652;Società Cooperativa di Solidarietà Sociale Sorriso;SORRISO;Via Manganario n. 31;84126;65116;Salerno;SA;3209329543;;coop.sorriso@tin.it;coopsorriso@pec.confcooperative.it;Autorizzazione;Determina dirigenziale;43;2015-10-08 00:00:00.000;Completa;
99;C10;SRS10;Comunità educativa a dimensione familiare (dai 4 ai 13 anni);LA CASA DI GIGIA Onlus;VIA GAETA N. 37;81034;61052;Mondragone;CE;0823970740;;mancante;6;privata in affidamento;41,115781;13,891262;3197120615;COOPERATIVA SOCIALE ONLUS;LA CASA DI GIGIA Onlus;VIA GAETA N. 37;81034;61052;Mondragone;CE;0823970740 ;;mancante;;Autorizzazione;;15624-628;2010-08-12 00:00:00.000;Parzialmente compilata;
100;S05;SRS11;Comunità alloggio (dai 13 ai 18 anni);DOLCE  SENTIRE;via F.lli Linguiti 14;84100;65116;Salerno;SA;089661955;089861955;dolcesentire.emmaus@libero.it;4;privata in affidamento;40,682441;14,768096;3204180651;COOPERATIVA SOCIALE;EMMAUS;P.zza S.Francesco n. 32;84100;65116;Salerno;SA;089661955;089861955;dolcesentire.emmaus@libero.it;;Autorizzazione;;5190;2012-01-12 00:00:00.000;Parzialmente compilata;
101;S04;SRS10;Comunità educativa a dimensione familiare (dai 4 ai 13 anni);L'AIRONE;Via Pizzi n. 9;84090;65036;Castiglione del Gen;SA;089861955;;airone.casabetania@libero.it;6;privata in affidamento;40,724125;14,849915;3204180651;COOPERATIVA SOCIALE;EMMAUS;P.zza S.Francesco n. 32;84100;65116;Salerno;SA;089661955;089861955;dolcesentire.emmaus@libero.it;;Autorizzazione;;664;2013-02-11 00:00:00.000;Completa;
102;C10;SRS11;Comunità alloggio (dai 13 ai 18 anni);LE ALI;VIA DOMITIANA N. 547;81034;61052;Mondragone;CE;08231631460 - 3274431153;08231631460;COMUITA'LEALI@GMAIL.COM;7;privata in affidamento;41,120333;13,87301;3227100611;s.a.s. SOCIETA' IN ACCOMANDITA SEMPLICE;BLU ANGELS e C. di DEL PRETE MARCO ;VIA DOMITIANA N,. 547;81034;61052;Mondragone;CE;08231631460 - 3274431153;08231631460;COMUITA'LEALI@GMAIL.COM;;Autorizzazione;;25637-822;2010-11-23 00:00:00.000;Parzialmente compilata;
103;B04;SRS10;Comunità educativa a dimensione familiare (dai 4 ai 13 anni);EOS;Via F. Coppi n.47;82037;62074;Telese Terme;BN;0824975697;0824975697;mariarosariavaia@alice.it;6;privata in affidamento;41,210508;14,529986;3253170611;Cooperativa Sociale ;Eureka;Via Lamberti, n.8;81030;61053;Orta di Atella;CE;0818910196;0818910196;eureka.cooperativasociale@virgilio.it;coopeurekaarl@pec.it;Autorizzazione;Provvedimento;3173;2016-05-03 00:00:00.000;Confermata e inoltrata alla DG;2017-05-19 16:57:43.000
104;C10;SRS10;Comunità educativa a dimensione familiare (dai 4 ai 13 anni);MICKEY MOUSE;VIA MATERA N. 12;81034;61052;Mondragone;CE;08239742248;0823728921;INFO@CONSORZIONESTORE.IT;6;privata in affidamento;41,117399;13,884849;3258610611;SOCIETA' COOPERATIVA SOCIALE ONLUS;CONSORZIO DI COOPERATIVE SOCIALI "NESTORE";VIA FONDO VIGNA;81030;61101;Falciano del Massic;CE;0823728289;0823728921;CONSORZIONESTORE@LIBERO.IT;;Autorizzazione;;15625-627;2010-08-12 00:00:00.000;Parzialmente compilata;
105;C06;SRS11;Comunità alloggio (dai 13 ai 18 anni);COMUNITA' ALLOGGIO AMICI DEL SORRISO;VIA S. D'ACQUISTO 5/A;81030;61043;Gricignano di Avers;CE;0815029319;0815029319;info@agipa.it;8;privata in affidamento;40,984631;14,232824;3265140610;Associazione;AMICI DEL SORRISO;Via Indipendenza, 41;81038;61094;Trentola-Ducenta;CE;0815029319;0815029319;info@agipa.it;;Autorizzazione;provvedimento;5;2015-02-13 00:00:00.000;Confermata e inoltrata alla DG;2015-04-28 13:41:26.000
106;C07;SRS11;Comunità alloggio (dai 13 ai 18 anni);Comunità Alloggio So.Le. Società/Legalità;via  Giuseppe Ungaretti n 6;81038;61094;Trentola-Ducenta;CE;0813448168;0813448168;info@agipa.it;8;privata in affidamento;40,978294;14,165378;3265140610;Associazione;AMICI DEL SORRISO;Via Indipendenza, 41;81038;61094;Trentola-Ducenta;CE;0815029319;0815029319;info@agipa.it;;Accreditamento;DETERMINAZIONE DI ACCREDITAMENTO;84;2015-09-08 00:00:00.000;Completa;
107;S05;SRS09;Casa famiglia ( da 0 a 18 anni);Tamburo di latta;via Posidonia 165;84100;65116;Salerno;SA;0893303330;089330330;info@ilvillaggiodiesteban;4;privata in affidamento;40,667656;14,789666;3271590659;Cooperativa Sociale;IL VILLAGGIO DI ESTEBAN;Via Mauri c/o UMA;84100;65116;Salerno;SA;089330330;089330330;info@ilvillaggiodiesteban.it;;Autorizzazione;;47620;2012-03-14 00:00:00.000;Parzialmente compilata;
108;S05;SRS11;Comunità alloggio (dai 13 ai 18 anni);Porta di mare;via Galdi 14;84100;65116;Salerno;SA;0893303330;089330330;info@ilvillaggiodiesteban;6;privata in affidamento;40,659266;14,801369;3271590659;Cooperativa Sociale;IL VILLAGGIO DI ESTEBAN;Via Mauri c/o UMA;84100;65116;Salerno;SA;089330330;089330330;info@ilvillaggiodiesteban.it;;Autorizzazione;;47627;2012-03-14 00:00:00.000;Parzialmente compilata;
109;C08;SRS10;Comunità educativa a dimensione familiare (dai 4 ai 13 anni);La Girandola;Via Torino, N° 19;81054;61081;San Prisco;CE;0823694444;0823694444;labussola.onlus@pec.it;6;privata in affidamento;41,084156;14,271069;3275390619;Cooperativa Sociale Onlus;Cooperativa Sociale Onlus "La Bussola";Via Verona, N° 4;81054;61081;San Prisco;CE;0823694444;0823694444;labussola.onlus@pec.it;labussola.onlus@pec.it;Autorizzazione/Accreditamento (art.10 comma 2-punto 2-reg. 4/2010);Verbale;42309;2015-04-13 00:00:00.000;Confermata e inoltrata alla DG;2015-05-07 13:04:06.000
110;S10;SRS11;Comunità alloggio (dai 13 ai 18 anni);Casa di Samia;Via Teodoro Mommsen snc;84035;65097;Polla;SA;097522731;097522713;laborsala@libero.it;4;privata in affidamento;40,51554;15,49858;3281680656;;Cooperativa Sociale ISKRA;Via Pasquale Festa Campanile n. 31 ;85050;76046;Marsicovetere;PZ;097522731;097522713;laborsala@libero.it;;Autorizzazione;Determina dirigenziale;18;2015-05-13 00:00:00.000;Completa;
111;S10;SRS11;Comunità alloggio (dai 13 ai 18 anni);LINUS 1;Via Annia n. 29/A int. 3;84035;65097;Polla;SA;097522731;097522713;laborsala@libero.it;8;privata in affidamento;40,518514;15,501828;3281680656;;Cooperativa Sociale ISKRA;Via Pasquale Festa Campanile n. 31 ;85050;76046;Marsicovetere;PZ;097522731;097522713;laborsala@libero.it;;Autorizzazione;Determina dirigenziale;19;2015-05-13 00:00:00.000;Confermata e inoltrata alla DG;2017-12-01 18:13:26.000
112;S10;SRS11;Comunità alloggio (dai 13 ai 18 anni);Il Sentiero;Via Fossa n.16;84036;65114;Sala Consilina;SA;097522731;097522713;laborsala@libero.it;8;privata in affidamento;40,382744;15,600705;3281680656;;Cooperativa Sociale ISKRA;Via Pasquale Festa Campanile n. 31 ;85050;76046;Marsicovetere;PZ;097522731;097522713;laborsala@libero.it;;Autorizzazione;Determina dirigenziale;26;2016-07-29 00:00:00.000;Confermata e inoltrata alla DG;2017-12-01 14:09:40.000
113;S10;SRS11;Comunità alloggio (dai 13 ai 18 anni);Il Sentiero;Via Canali snc;84030;65125;San Pietro al Tanag;SA;097522731;097522713;laborsala@libero.it;8;privata in affidamento;40,458563;15,479932;3281680656;;Cooperativa Sociale ISKRA;Via Pasquale Festa Campanile n. 31 ;85050;76046;Marsicovetere;PZ;097522731;097522713;laborsala@libero.it;;Autorizzazione;Determina dirigenziale;16;2015-05-13 00:00:00.000;Completa;
114;C01;SRS11;Comunità alloggio (dai 13 ai 18 anni);L'ARCOBALENO;VIA PALERMO, 16/18;81020;61078;San Nicola la Strad;CE;08231543285;;giromondosociale@libero.it;8;privata in affidamento;41,051346;14,329662;3282250616;SOCIETA' COOPERATIVA SOCIALE;IL GIRO DEL MONDO;Via Maddalena n.19;81100;61022;Caserta;CE;08231543285;;giromondosociale@libero.it;;Accreditamento;determina dirigenziale;32;2015-10-28 00:00:00.000;Confermata e inoltrata alla DG;2017-03-23 12:45:05.000
115;S01;SRS10;Comunità educativa a dimensione familiare (dai 4 ai 13 anni);Il mondo di Rosa;Via della pace 36;84086;65108;Roccapiemonte;SA;0818630316;0815363218;coopilcanguro@gmail.com;6;privata in affidamento;40,765905;14,672625;3318830654;SOCIETA' COOPERATIVA SOCIALE a.r.l.;"IL CANGURO";VIA NAZIONALE, 22;84018;65137;Scafati;SA;0818630316;0818630316;coopilcanguro@gmail.com;;Autorizzazione;Determina;605;2014-05-20 00:00:00.000;Confermata e inoltrata alla DG;2015-04-22 19:46:39.000
116;C07;SRS10;Comunità educativa a dimensione familiare (dai 4 ai 13 anni);IL TULIPANO;Via S. Antonio X Traversa;81030;61103;Casapesenna;CE;0818161659;0818161659;iltulipano2014@libero.it;6;privata in affidamento;40,989419;14,144858;3339150611;;VIVERE SOC. COOP. SOCIALE;Via Roma 171;81038;61094;Trentola-Ducenta;CE;0818161659;0818161659;iltulipano2014@libero.it;vivere.soc.coop@pec.it;Autorizzazione/Accreditamento (art.10 comma 2-punto 2-reg. 4/2010);DETERMINAZIONE ;126;2015-11-10 00:00:00.000;Completa;
117;N33;SRS10;Comunità educativa a dimensione familiare (dai 4 ai 13 anni);Comunità  educativa a dimensione familiare "San Francesco";Via San Francesco, 27;80069;63086;Vico Equense;NA;0818016616 ;0818790176;info@assohelp.it ;6;privata in affidamento;40,668246;14,435789;3353721214;ASSOCIAZIONE DI PROMOZIONE SOCIALE;HELP AFFIDO FAMILIARE ONLUS;VIA BONEA, 55;80069;63086;Vico Equense;NA;0818790176;0818790176;info@helpasso.it;;Autorizzazione;Autorizzazione;37597;2014-09-10 00:00:00.000;Completa;
118;C10;SRS10;Comunità educativa a dimensione familiare (dai 4 ai 13 anni);PATER PAN;VIALE DEI PINI N. 31;81034;61052;Mondragone;CE;0823970740;0823977790;mancante;6;privata in affidamento;41,109871;13,909938;3357080617;COOPERATIVA SOCIALE ;SOC.COOP.SOCIALE  LA BUSSOLA di MORRONE LINA;VIALE DEI PINI N. 31;81034;61052;Mondragone;CE;0823977790;0823977790;mancante;;Autorizzazione;;14661-603;2010-07-26 00:00:00.000;Parzialmente compilata;
119;C06;SRS11;Comunità alloggio (dai 13 ai 18 anni);L'ARCA DI NOE';Via Don Milani n14;81030;61087;Sant'Arpino;CE;0818919590;;ederaonlus@pec.it;8;privata in affidamento;40,957898;14,252956;3370340618;;EDERA ONLUS SOCIETA' COOPERATIVA SOCIALE;SAVONAROLA N1;81036;61074;San Cipriano d'Aver;CE;3348856994;0810107994;ederaonlus@pec.it;ederaonlus@pec.it;Autorizzazione;AUTORIZZAZIONE;11;2016-12-14 00:00:00.000;Confermata e inoltrata alla DG;2018-01-25 13:41:55.000
120;B04;SRS11;Comunità alloggio (dai 13 ai 18 anni);TETTO ROSSO;Via Terranzano, 28;82030;62027;Dugenta;BN;0824978816;0824978816;tettorosso@melagrana.eu;6;privata in affidamento;41,129285;14,435066;3407230618;ASSOCIAZIONE ONLUS; Melagrana ;Vico I Castello, 37;81027;61075;San Felice a Cancel;CE;0823805540;0823805540;tomasodisalvatore@melagrana.eu;;Autorizzazione;Provvedimento;2558;2015-03-17 00:00:00.000;Confermata e inoltrata alla DG;2017-05-11 14:05:00.000
121;N19;SRS11;Comunità alloggio (dai 13 ai 18 anni);Comunità Alloggio Elisir;Via Libertini N°104;80023;63011;Caivano;NA;0818345105;0818315763;info@agora.coop.it;8;privata in affidamento;40,953334;14,299199;3431481211;Società cooperativa sociale;Coop. Sociale Agorà;Via Izzo I trav. N°6;80024;63016;Cardito;NA;0818345105;0818315763;info@agora.coop.it;;Accreditamento;provvedimento;5513;2015-10-30 00:00:00.000;Confermata e inoltrata alla DG;2015-11-19 17:34:18.000
122;C07;SRS10;Comunità educativa a dimensione familiare (dai 4 ai 13 anni);Comunità Educativa di tipo familiare EOS;via II Agosto n. 8;81030;61054;Parete;CE;0815036822;0815036822;cooperativa.eos@libero.t;6;privata in affidamento;40,95451;14,16272;3458130618;Cooperativa Sociale;COOPERATIVA  SOCIALE EOS ONLUS;via II Agosto n. 8;81030;61054;Parete;CE;0815036822;0815036822;cooperativa.eos@libero.t;;Autorizzazione;;170;2012-03-22 00:00:00.000;Completa;
123;N20;SRS11;Comunità alloggio (dai 13 ai 18 anni);Il Castello;Contrada Gaudello SS ex 162;80011;63001;Acerra;NA;0823802431;0823802431;comunitàilcastello@gmail.it;7;privata in affidamento;40,944109;14,371438;3459530618;Società Cooperativa;Stella Cooperativa Sociale Onlus a.r.l.;Via Padre V. De Marino, n.13;81027;61075;San Felice a Cancel;CE;0823752948;0823802431;socostella@alice.it;;Accreditamento;determina;1705;2014-12-17 00:00:00.000;Confermata e inoltrata alla DG;2015-01-27 16:42:41.000
124;C07;SRS10;Comunità educativa a dimensione familiare (dai 4 ai 13 anni);Comunità Educativa di tipo familiare AURORA;via II Agosto n. 8 int.3;81030;61054;Parete;CE;0815036822;0815036822;aurorasociale@libero.it;6;privata in affidamento;40,95451;14,16272;3478240611;ASSOCIAZIONE DI PROMOZIONE SOCIALE;AURORA;via II Agosto n. 8 int.3;81030;61054;Parete;CE;0815036822;0815036822;aurorasociale@libero.it;;Accreditamento;DETERMINAZIONE DI ACCREDITAMENTO;84;2015-09-08 00:00:00.000;Completa;
125;C09;SRS11;Comunità alloggio (dai 13 ai 18 anni);I COLORI DEL MONDO 1 ;VIA MEDAGLIA D'ORO, 24;81056;61089;Sparanise;CE;0823938340;;I.COLORIDELMONDO@LIBERO.IT;8;privata in affidamento;41,177748;14,160628;3481550618;;TERRA MAGICA;PIAZZA GIORDANO BRUNO, 1;81037;61088;Sessa Aurunca;CE;0823938340;;I.COLORIDELMONDO@LIBERO.IT;COOPTERRAMAGICA@PEC.IT;Autorizzazione;decreto;16416;2016-11-18 00:00:00.000;Confermata e inoltrata alla DG;2017-12-04 18:48:31.000
126;S03-ex-S5;SRS11;Comunità alloggio (dai 13 ai 18 anni);IL GRILLO PARLANTE;C/DA PAPALEONE, SNC;84025;65050;Eboli;SA;0828304691;;info@eformat.biz;8;privata in affidamento;40,531857;14,993468;3539200653;Consorzio;Consorzio Format;VIA ROSA JEMMA, 2;84091;65014;Battipaglia;SA;0828304691;;info@eformat.biz;;Accreditamento;;43191;2018-05-24 00:00:00.000;Confermata e inoltrata alla DG;2018-05-26 20:42:24.000
127;S03-ex-S5;SRS11;Comunità alloggio (dai 13 ai 18 anni);LA CASA DEL GRILLO;C/DA PAPALEONE, SNC;84025;65050;Eboli;SA;0828304691;;info@eformat.biz;8;privata in affidamento;40,617923;15,056433;3539200653;Consorzio;Consorzio Format;VIA ROSA JEMMA, 2;84091;65014;Battipaglia;SA;0828304691;;info@eformat.biz;;Accreditamento;;43221;2018-05-24 00:00:00.000;Confermata e inoltrata alla DG;2018-05-26 20:42:24.000
128;C09;SRS10;Comunità educativa a dimensione familiare (dai 4 ai 13 anni);CRESCERE INSIEME;VIA SCARANO. 2 RIONE SANTAGATA;81043;61015;Capua;CE;0823961723;;CRESCERE.INSIEME@PEC.IT;6;privata in affidamento;41,106126;14,213049;3545500617;;SOCIETA' OOPERATIVA SOCIALE CRESCERE INSIEME;VIA MARTIRI CRISTIANI, II TRAV, 10;81055;61083;Santa Maria Capua V;CE;0823961723;;CRESCERE.INSIEME@PEC.IT;CRESCERE.INSIEME@PEC.IT;Accreditamento;decreto;16401;2016-11-17 00:00:00.000;Confermata e inoltrata alla DG;2017-12-04 18:23:54.000
129;C07;SRS11;Comunità alloggio (dai 13 ai 18 anni);COMUNITA' ALLOGGIO 'S. ELENA';VIA PASCOLI SNC ;81030;61103;Casapesenna;CE;0818922284;;comunitaselena@libero.it;7;privata in affidamento;40,991603;14,14268;3548330616;;Cooperativa Sociale Serapide Impresa Sociale;Via Nazionale Appia;81022;61018;Casagiove;CE;082318723924;082318723924;serapidecooperativa@gmail.com;;Accreditamento;DETERMINAZIONE DI ACCREDITAMENTO;84;2015-09-08 00:00:00.000;Completa;
130;C08;SRS11;Comunità alloggio (dai 13 ai 18 anni);L'Incontro;Via Santella, P.co Elettra, N° 31;81055;61083;Santa Maria Capua V;CE;08231873924;08231873917;serapipdecooperativa@gmail.com;8;privata in affidamento;41,082087;14,254187;3548330616;;Cooperativa Sociale Serapide Impresa Sociale;Via Nazionale Appia;81022;61018;Casagiove;CE;082318723924;082318723924;serapidecooperativa@gmail.com;;Accreditamento;Verbale;42248;2015-03-02 00:00:00.000;Confermata e inoltrata alla DG;2015-03-30 18:08:52.000
131;C08;SRS11;Comunità alloggio (dai 13 ai 18 anni);mirà²;via convento delle grazie, 21;81055;61083;Santa Maria Capua V;CE;082318723924;;serapidecooperativa@gmail.com;7;privata in affidamento;41,084832;14,254635;3548330616;;Cooperativa Sociale Serapide Impresa Sociale;Via Nazionale Appia;81022;61018;Casagiove;CE;082318723924;082318723924;serapidecooperativa@gmail.com;;Autorizzazione;autorizzazione;42826;2017-05-03 00:00:00.000;Confermata e inoltrata alla DG;2017-11-02 11:53:44.000
132;C10;SRS11;Comunità alloggio (dai 13 ai 18 anni);RAGGI DI SOLE;VIALE EUROPA N. 12;81034;61052;Mondragone;CE;0823977146;0823977146;mancante;6;privata in affidamento;41,118089;13,874041;3599140617;COOPERATIVA SOCIALE Onlus  arl;DAFNE ;VIA CAV. DI VITTORIO VENETO N. 18;81034;61052;Mondragone;CE;0823977146;0823977146;mancante;;Autorizzazione;;11733-467;2011-06-30 00:00:00.000;Parzialmente compilata;
133;C10;SRS11;Comunità alloggio (dai 13 ai 18 anni);COMUNITA' ALLOGGIO "MEDITERRANEO";VIA MEDITERRANEO N. 2;;61052;Mondragone;CE;0823977958 -3389897778;0823977958;sosteniamo@alice.it;6;privata in affidamento;41,114799;13,893493;3600020618;COOPERATIVA SOCIALE ONLUS;S.O.S. TENIAMO di D'ANGELO SALVATORE;VIA MEDITERRANEO N. 2;;61052;Mondragone;CE;0823977958 -3389897778;0823977958;sosteniamo@alice.it;;Autorizzazione;;22648-68;2012-02-10 00:00:00.000;Parzialmente compilata;
134;C07;SRS11;Comunità alloggio (dai 13 ai 18 anni);L'ISOLA CHE NON C'E' ;VIA SPADOLINI N 27;81033;61019;Casal di Principe;CE;0818922028;0818922028;COMUNITALISOLACHENONCE@VIRGILIO.IT;8;privata in affidamento;41,016397;14,13041;3609690619;SOCIETA' COOPERATIVA;L'SOLA CHE NON C'E';VIA INDIPENDENZA N 39;81038;61094;Trentola-Ducenta;CE;0818922028;0818922028;COMUNITALISOLACHENONCE@VIRGILIO.IT;;Accreditamento;DETERMINAZIONE DI ACCREDITAMENTO;84;2015-09-08 00:00:00.000;Completa;
135;C07;SRS11;Comunità alloggio (dai 13 ai 18 anni);COMUNITA' ALLOGGIO 'IL VOLO DELLA LIBELLULA';VIA CAPUA SNC;81030;61077;San Marcellino;CE;0818922028;0;COMUNITALISOLACHENONCE@VIRGILIO.IT;8;privata in affidamento;40,987518;14,164036;3609690619;SOCIETA' COOPERATIVA;L'SOLA CHE NON C'E';VIA INDIPENDENZA N 39;81038;61094;Trentola-Ducenta;CE;0818922028;0818922028;COMUNITALISOLACHENONCE@VIRGILIO.IT;;Accreditamento;DETERMINAZIONE DI ACCREDITAMENTO;120;2016-06-06 00:00:00.000;Confermata e inoltrata alla DG;2017-08-30 12:11:25.000
136;S05;SRS08;Comunità di pronta e transitoria accoglienza (dai 12 ai 18 anni);MIMO;Via Principessa Sichelgaita n.9;84100;65116;Salerno;SA;0892582245;0892582245;retesolidale@libero.it;4;privata in affidamento;40,6827;14,762799;3625990654;SOCIETA' COOPERATIVA ;COOPERATIVA UN TETTO PER TUTTI;PIAZZA XXIV MAGGIO, 26;84122;65116;Salerno;SA;0892582245;0892582245;retesolidale@libero.it;;Autorizzazione;;57634;2012-03-27 00:00:00.000;Parzialmente compilata;
137;C09;SRS10;Comunità educativa a dimensione familiare (dai 4 ai 13 anni);IL SORRISO DEI BIMBI;Via 54 Martiri, 71;81041;61007;Bellona;CE;0823990955;;lasperanza2011@libero.it;6;privata in affidamento;41,163525;14,229773;3633860618;Cooperativa Sociale;Cooperativa Sociale "La Speranza" Onlus;Via Mazzocchi, 40;81050;61083;Santa Maria Capua V;CE;0823990955;0823990955;LASPERANZA2011@LIBERO.IT;COOPSOCIALE.LASPERANZA@LEGALMAIL.IT;Autorizzazione;decreto;8643;2016-06-23 00:00:00.000;Confermata e inoltrata alla DG;2017-12-04 19:21:37.000
138;C09;SRS10;Comunità educativa a dimensione familiare (dai 4 ai 13 anni);Comunità  Educativa di tipo familiare "Il Sorriso dei Bimbi";VIA TUTUNI, IV TRAV N. 22B;81041;61100;Vitulazio;CE;0823990955;0823990955;coopsociale.lasperanza@legalmail.it;6;privata in affidamento;41,164028;14,216128;3633860618;Cooperativa Sociale;Cooperativa Sociale "La Speranza" Onlus;Via Mazzocchi, 40;81050;61083;Santa Maria Capua V;CE;0823990955;0823990955;LASPERANZA2011@LIBERO.IT;COOPSOCIALE.LASPERANZA@LEGALMAIL.IT;Autorizzazione;decreto;13417;2015-10-22 00:00:00.000;Confermata e inoltrata alla DG;2017-12-04 17:14:20.000
139;B04;SRS11;Comunità alloggio (dai 13 ai 18 anni);Hesychia;Via Cinquevie - Parco S. Stefano;82037;62074;Telese Terme;BN;0824903415;0824903415;s.antoniocooperativasociale@legalmail.it;4;privata in affidamento;41,216759;14,526203;3648370611;SOCIETA COOPERATIVA ; S.ANTONIO - SOCIETA COOPERATIVA SOCIALE - ONLUS;VIA 14 OTTOBRE snc - RESIDENCE ELISABETTA;81010;61023;Castel Campagnano;CE;3283888261 - 0823789797;0823789797;s.antoniocooperativasociale@legalmail.it;;Accreditamento;Provvedimento di accreditamento;556;2018-01-16 00:00:00.000;Confermata e inoltrata alla DG;2018-02-14 10:57:11.000
140;C04;SRS10;Comunità educativa a dimensione familiare (dai 4 ai 13 anni);COMUNITA EDUCATIVA A DIMENSIONE FAMILIARE "IL SORRISO DI UN ANGELO";VIA 14 OTTOBRE snc - RESIDENCE ELISABETTA;81010;61023;Castel Campagnano;CE;0823789797 - 3283888261;0823789797;s.antoniocooperativasociale@legalmail.it;6;privata in affidamento;41,182502;14,450785;3648370611;SOCIETA COOPERATIVA ; S.ANTONIO - SOCIETA COOPERATIVA SOCIALE - ONLUS;VIA 14 OTTOBRE snc - RESIDENCE ELISABETTA;81010;61023;Castel Campagnano;CE;3283888261 - 0823789797;0823789797;s.antoniocooperativasociale@legalmail.it;;Autorizzazione;Provvedimento;42675;2016-06-21 00:00:00.000;Completa;
141;C04;SRS10;Comunità educativa a dimensione familiare (dai 4 ai 13 anni);Il Sorriso di un Angelo;Via XIV Ottobre n. 22;81010;61023;Castel Campagnano;CE;0823789797;0823789797;s.antoniocooperativasociale@legalmail.it;6;privata in affidamento;41,182502;14,450785;3648370611;SOCIETA COOPERATIVA ; S.ANTONIO - SOCIETA COOPERATIVA SOCIALE - ONLUS;VIA 14 OTTOBRE snc - RESIDENCE ELISABETTA;81010;61023;Castel Campagnano;CE;3283888261 - 0823789797;0823789797;s.antoniocooperativasociale@legalmail.it;;Accreditamento;decreto;42826;2017-04-20 00:00:00.000;Confermata e inoltrata alla DG;2017-05-29 10:30:45.000
142;C06;SRS11;Comunità alloggio (dai 13 ai 18 anni);COMUNITA' ALLOGGIO ADOLESCENTIA;via s. Lucia n.24;81031;61005;Aversa;CE;0818147899;0818147899;adolescentia@aruba.it;8;privata in affidamento;40,975015;14,198336;3683250611;;Adolescentia;via s. Lucia n.24;81031;61005;Aversa;CE;0818147899;0818147899;adolescentia@aruba.it;adolescentia@pec.it;Autorizzazione;PROVVEDIMENTO;3;2015-01-13 00:00:00.000;Confermata e inoltrata alla DG;2015-07-02 14:15:10.000
143;C08;SRS11;Comunità alloggio (dai 13 ai 18 anni);Comunità Alloggio "Bamboo";via Santella, p.co La Perla snc;81055;61083;Santa Maria Capua V;CE;08231544893;;ilgirasolesoccooponlus@pec.it;8;privata in affidamento;41,082087;14,254187;3692540614;Cooperativa Sociale;Cooperativa Sociale Onlus "Il Girasole";Via Santella, P.Co La Perla;81055;61083;Santa Maria Capua V;CE;08231878478;08231878478;comunitagirasole.ce@libero.it;;Autorizzazione;provvedimento;43252;2018-05-24 00:00:00.000;Confermata e inoltrata alla DG;2018-06-05 16:08:19.000
144;C08;SRS11;Comunità alloggio (dai 13 ai 18 anni);Comunità Alloggio Il Girasole;Via Togliatti, N° 2 P.co Sica;81055;61083;Santa Maria Capua V;CE;08231878478;08231878478;comunitagirasole.ce@libero.it;6;privata in affidamento;41,082087;14,254187;3692540614;Cooperativa Sociale;Cooperativa Sociale Onlus "Il Girasole";Via Santella, P.Co La Perla;81055;61083;Santa Maria Capua V;CE;08231878478;08231878478;comunitagirasole.ce@libero.it;;Autorizzazione/Accreditamento (art.10 comma 2-punto 2-reg. 4/2010);Verbale;42125;2015-02-09 00:00:00.000;Confermata e inoltrata alla DG;2015-02-19 14:02:36.000
145;C08;SRS11;Comunità alloggio (dai 13 ai 18 anni);Cassiopea;Via Murata, I traversa, s.n.c.;81055;61083;Santa Maria Capua V;CE;08231842253;08231842253;comunitacassiopea@libero.it;8;privata in affidamento;41,062304;14,245853;3728250618;Cooperativa Sociale Onlus;Cooperativa Sociale Onlus "La Luce di una Stella";Via Murata, II trav., s.n.c.;81055;61083;Santa Maria Capua V;CE;0823898418;0823898418;lalucediunastellascs@libero.it;lalucediunastella@pec.it;Accreditamento;Verbale;21-2015;2015-10-15 00:00:00.000;Confermata e inoltrata alla DG;2015-11-05 12:58:22.000
146;C08;SRS11;Comunità alloggio (dai 13 ai 18 anni);Sirio;Via Murata, II traversa, s.n.c.;81055;61083;Santa Maria Capua V;CE;08231842253;08231842253;lalucediunastellascs@libero.it;8;privata in affidamento;41,082087;14,254187;3728250618;Cooperativa Sociale Onlus;Cooperativa Sociale Onlus "La Luce di una Stella";Via Murata, II trav., s.n.c.;81055;61083;Santa Maria Capua V;CE;0823898418;0823898418;lalucediunastellascs@libero.it;lalucediunastella@pec.it;Accreditamento;Verbale;20-2015;2015-10-15 00:00:00.000;Confermata e inoltrata alla DG;2015-11-05 12:53:11.000
147;N11;SRS08;Comunità di pronta e transitoria accoglienza (dai 12 ai 18 anni);UTOPIA ILARIA;VIA LIBERTA' 308;80055;63059;Portici;NA;0810168175;0810608591;info@cooperativashannara.it;6;privata in affidamento;40,814122;14,339067;3728481213;COOPERATIVA SOCIALE ONLUS;SHANNARA;VIA LIBERTA' III TRAV A DX PALAZZO PORTOLANO, 3;80055;63059;Portici;NA;0817761647;0810608591;info@cooperativashannara.it;;Autorizzazione;;396;2013-07-01 00:00:00.000;Parzialmente compilata;
148;N23;SRS11;Comunità alloggio (dai 13 ai 18 anni);BELLA 'MBRIANA;VIA A. BOCCIO, 59;80035;63050;Nola;NA;0815124474;0815124474;giacomo.desena@hotmail.it;6;privata in affidamento;40,920958;14,531852;3745951214;;CAMPO DEI FIORI;VIA A. BOCCIO, 59;80035;63050;Nola;NA;0815124474;0815124474;giacomo.desena@hotmail.it;;Accreditamento;Determina Dirigenziale;82;2015-04-14 00:00:00.000;Confermata e inoltrata alla DG;2015-05-22 10:36:25.000
149;N23;SRS10;Comunità educativa a dimensione familiare (dai 4 ai 13 anni);ITACA;VIA POTENGA, 22;80035;63050;Nola;NA;0815124474;0815124474;giacomo.desena@hotmail.it;6;privata in affidamento;40,915511;14,528048;3745951214;;CAMPO DEI FIORI;VIA A. BOCCIO, 59;80035;63050;Nola;NA;0815124474;0815124474;giacomo.desena@hotmail.it;;Accreditamento;Determina Dirigenziale;83;2015-04-14 00:00:00.000;Confermata e inoltrata alla DG;2015-05-22 10:39:56.000
150;S08;SRS10;Comunità educativa a dimensione familiare (dai 4 ai 13 anni);HANSEL E GRETEL;via Raffaele Passarelli;84078;65154;Vallo della Lucania;SA;09742295;09742295;comunitàhanselegretel@yahoo.it;6;privata in affidamento;40,230521;15,265246;3750740650;Cooperativa  sociale Yobel ;HANSEL E GRETEL;via  Raffaele Passarelli n° 130;84078;65154;Vallo della Lucania;SA;09742295;09742295;cooperativayobel@yahoo.it;;Autorizzazione;;2254;2013-06-25 00:00:00.000;Parzialmente compilata;
151;A03;SRS11;Comunità alloggio (dai 13 ai 18 anni);Comunità  alloggio casa Figli di Dio;Via Carducci snc;83046;64041;Lacedonia;AV;0892855047;;info@cittadellaluna.it ;8;privata in affidamento;41,049993;15,421065;3783230653;;La Città della Luna;Via Madonna di Fatima, n.21;84129;65116;Salerno;SA;0892854848;0892854848;coopcittadellaluna@yahoo.it;;Accreditamento;decreto del presidente C.d.A.;18;2015-05-27 00:00:00.000;Confermata e inoltrata alla DG;2017-04-21 15:09:38.000
152;A03;SRS11;Comunità alloggio (dai 13 ai 18 anni);Fratello Sole;Corso Augustale 203;83046;64041;Lacedonia;AV;0892855047;;coopcittadellaluna@pec.confcooperativa.it;8;privata in affidamento;41,051507;15,422175;3783230653;;La Città della Luna;Via Madonna di Fatima, n.21;84129;65116;Salerno;SA;0892854848;0892854848;coopcittadellaluna@yahoo.it;;Accreditamento;Decreto;18;2016-09-27 00:00:00.000;Confermata e inoltrata alla DG;2017-10-30 15:07:54.000
153;A03;SRS11;Comunità alloggio (dai 13 ai 18 anni);Sorella Luna;Corso Augustale 209;83046;64041;Lacedonia;AV;0892855047;;coopcittadellaluna@pec.confcooperativa.it;8;privata in affidamento;41,049993;15,421065;3783230653;;La Città della Luna;Via Madonna di Fatima, n.21;84129;65116;Salerno;SA;0892854848;0892854848;coopcittadellaluna@yahoo.it;;Accreditamento;Decreto;12;2016-08-09 00:00:00.000;Confermata e inoltrata alla DG;2017-10-30 13:54:16.000
154;C07;SRS10;Comunità educativa a dimensione familiare (dai 4 ai 13 anni);COMUNITA' EDUCATIVA LA LIBELLULA;Via Europa n. 41;81033;61019;Casal di Principe;CE;0818165535;08119143402;lalibellula.noprofit@gmail.com;6;privata in affidamento;41,013145;14,118473;3788520611;;SOCIETA' COOPERATIVA SOCIALE 'LA LIBELLULA';Via Europa n. 41;81033;61019;Casal di Principe;CE;0818165535;08119143402;lalibellula.noprofit@gmail.com;lalibellula.noprofit@pec.it;Accreditamento;DETERMINAZIONE ;126;2015-11-10 00:00:00.000;Completa;
155;C01;SRS11;Comunità alloggio (dai 13 ai 18 anni);Ali e Radici;Via Parrocchia n.34 - Mezzano di Caserta;81100;61022;Caserta;CE;0823520328;;antonio.rivetti@alice.it;8;privata in affidamento;41,084587;14,364453;3790360618;;Tempi Nuovi;Via Di Vittorio n.21;81020;61104;San Marco Evangelis;CE;0823520328;;antonio.rivetti@alice.it;;Accreditamento;determina dirigenziale;4;2016-01-13 00:00:00.000;Confermata e inoltrata alla DG;2017-03-23 12:45:05.000
156;S01;SRS11;Comunità alloggio (dai 13 ai 18 anni);L'ALA;Prolungamento Matteotti Parco delle Rose, 8/a;84087;65135;Sarno;SA;0813420886;;koine.coop-soc@libero.it;4;privata in affidamento;40,810101;14,621581;3804731218;Società Cooperativa Sociale arl;Koinè;Via Ferrarin, 1;80038;63057;Pomigliano d'Arco;NA;0813420886;0818032220;koine.coop-soc@libero.it;;Autorizzazione;Determina;558;2012-01-31 00:00:00.000;Completa;
157;N22;SRS10;Comunità educativa a dimensione familiare (dai 4 ai 13 anni);Casa  Letizia;Via Bonazzi,6;80030;63043;Marigliano;NA;0818413865;0818413865;irene95onlus@tin.it;6;privata in affidamento;40,927002;14,456222;3838751216;Società Cooperativa di Solidarietà Sociale a r.l.;IRENE '95;Cors Campano, 94;80030;63043;Marigliano;NA;0818416349;0818416349;irene95onlus@tin.it;;Autorizzazione;;117;2012-06-01 00:00:00.000;Parzialmente compilata;
158;N22;SRS10;Comunità educativa a dimensione familiare (dai 4 ai 13 anni);Casa Irene;Corso Campano, 94;80030;63043;Marigliano;NA;0818416349;0818416349;irene95onlus@tin.it;6;privata in affidamento;40,930927;14,445786;3838751216;Società Cooperativa di Solidarietà Sociale a r.l.;IRENE '95;Cors Campano, 94;80030;63043;Marigliano;NA;0818416349;0818416349;irene95onlus@tin.it;;Autorizzazione;;59;2012-03-22 00:00:00.000;Completa;
159;N17;SRS11;Comunità alloggio (dai 13 ai 18 anni);IL DOMANI;VIA FLORINDO FERRO 67;80027;63032;Frattamaggiore;NA;0810482092;0810482092;ariesonlus@pec.it;6;privata in affidamento;40,949649;14,269808;3878930613;SOCIETA' COOPERATIVA SOCIALE ONLUS;SOCIETA' COOPERATIVA SOCIALE ONLUS ARIES;P.ZZA GARIBALDI 1;81100;61022;Caserta;CE;0810482092;0810482092;ariesonlus@pec.it;;Accreditamento;provvedimento di accreditamento;447;2016-05-06 00:00:00.000;Confermata e inoltrata alla DG;2017-05-22 13:41:16.000
160;N32;SRS11;Comunità alloggio (dai 13 ai 18 anni);MARIA MADRE DELLA PROVVIDENZA ;PIAZZA BARTOLO LONGO ANGOLO PIAZZA SCHETTINI ;80045;63058;Pompei;NA;0818577321;0818503357;info@progettofamiglia.org;8;privata in affidamento;40,746157;14,498934;3885070650;;ASSOCIAZIONE PROGETTO FAMIGLIA ONLUS;B. GUERRITORE;84010;65130;Sant'Egidio del Mon;SA;081915548;0815133129;marcogiordano@progettofamiglia.org;;Autorizzazione/Accreditamento (art.10 comma 2-punto 2-reg. 4/2010);provvedimento;31265;2014-12-29 00:00:00.000;Confermata e inoltrata alla DG;2017-08-08 10:59:08.000
161;B04;SRS11;Comunità alloggio (dai 13 ai 18 anni);Comunità alloggio Altrove;Via Vallo Rotondo Parco delle Capinere;82037;62074;Telese Terme;BN;0824976622;0824976622;oltre.scrl@gmail.com;8;privata in affidamento;41,216759;14,526203;3889530618;;OLTRE SOCIETA' COOPERATIVA SOCIALE ;Piazza degli Eroi n.8;81022;61018;Casagiove;CE;3277515970;;oltre.scrl@pec.it;;Accreditamento;Provvedimento;10579;2015-12-10 00:00:00.000;Confermata e inoltrata alla DG;2017-02-14 11:31:06.000
162;N29;SRS11;Comunità alloggio (dai 13 ai 18 anni);DERNIER;VIA PANORAMICA 310 BIS;80056;63064;Ercolano;NA;0817775826;0817775826;bcdgroup@pec.it;8;privata in affidamento;40,81318;14,35636;3899160612;;BCD GROUP;Via Luigi Cadorna n. 11;81020;61078;San Nicola la Strad;CE;0817775826;0817775826;camdernier@hotmail.it;bcdgroup@pec.it;Accreditamento;Decreto Dirigenziale;45781;2015-10-01 00:00:00.000;Confermata e inoltrata alla DG;2015-10-28 10:05:10.000
163;C01;SRS11;Comunità alloggio (dai 13 ai 18 anni);Il Giglio;Via Tanucci n.73;81100;61022;Caserta;CE;08231543018;;iriscooperativaonlus@pec.it;8;privata in affidamento;41,077145;14,334924;3909820619;SocietÃ  cooperativa sociale Onlus;Cooperativa Sociale Onlus Iris;Via Santella, P.Co La Perla;81055;61083;Santa Maria Capua V;CE;08231540627;08231540627;comunitairis.ce@libero.it;iriscooperativaonlus@pec.it;Autorizzazione;determina dirigenziale;10;2017-12-05 00:00:00.000;Parzialmente compilata;
164;C08;SRS11;Comunità alloggio (dai 13 ai 18 anni);Comunità Iris;Via Appia, N° 24;81054;61081;San Prisco;CE;08231540627;08231540627;comunitairis.ce@libero.it;8;privata in affidamento;41,072813;14,315159;3909820619;;Cooperativa Sociale Onlus Iris;Via Santella, P.Co La Perla;81055;61083;Santa Maria Capua V;CE;08231540627;08231540627;comunitairis.ce@libero.it;iriscooperativaonlus@pec.it;Autorizzazione;Autorizzazione trasferimento;1;2017-01-27 00:00:00.000;Confermata e inoltrata alla DG;2017-02-08 12:31:17.000
165;C06;SRS11;Comunità alloggio (dai 13 ai 18 anni);IL DONO DELLA SEMPLICITA;via s. Francesco d'Assisi 18;81030;61053;Orta di Atella;CE;0818303068;;viverecoop@legalmail.it;8;privata in affidamento;40,96659;14,263805;3980630614;;Vivere societa' cooperativa sociale;via s. Francesco d'Assisi 18;81030;61053;Orta di Atella;CE;0818303068;;viverecoop@legalmail.it;;Autorizzazione;provvedimento;41699;2014-10-07 00:00:00.000;Confermata e inoltrata alla DG;2015-07-02 13:52:34.000
166;S01;SRS11;Comunità alloggio (dai 13 ai 18 anni);LA LOCANDA DI ARIANNA;CORSO NAZIONALE, 171;84018;65137;Scafati;SA;08119013994;08119013994;coopsoc.insieme03@libero.it;8;privata in affidamento;40,750333;14,52106;3991590658;COOPERATIVA SOCIALE;INSIEME A PIAZZA SAN GIOVANNI;VIA ADRIANA, 29;84012;65007;Angri;SA;08119013994;08119013994;coopsoc.insieme03@libero.it;;Accreditamento;Determina;514;2013-10-08 00:00:00.000;Completa;2015-04-22 19:46:39.000
167;S01_2;SRS11;Comunità alloggio (dai 13 ai 18 anni);CASA DI GIONA;VIA CORSO NAZIONALE,171;84018;65137;Scafati;SA;08119013994;;coopsooc.insieme03@libero.it;8;privata in affidamento;40,750333;14,52106;3991590658;COOPERATIVA SOCIALE;INSIEME A PIAZZA SAN GIOVANNI;VIA ADRIANA, 29;84012;65007;Angri;SA;08119013994;08119013994;coopsoc.insieme03@libero.it;;Autorizzazione;determina dirigenziale;674;2016-04-29 00:00:00.000;Confermata e inoltrata alla DG;2018-04-16 10:57:26.000
168;S06;SRS11;Comunità alloggio (dai 13 ai 18 anni);PRATO VERDE;Contrada S. Lorenzo n. 21;84084;65052;Fisciano;SA;089891258;;prato_verde@tiscali.it;8;privata in affidamento;40,773194;14,796561;4014170650;Cooperativa Sociale;LA TAVOLA ROTONDA;Via Bastioni n. 4;84100;65116;Salerno;SA;089891258;;prato_verde@tiscali.it;;Autorizzazione;;2044;2011-05-18 00:00:00.000;Parzialmente compilata;
169;S03-ex-S5;SRS09;Casa famiglia ( da 0 a 18 anni);CASA FAMIGLIA MIKI HOUSE;VIA VIRGILIO N.8;84025;65050;Eboli;SA;0828601525;0828601525;coopspesunica@gmail.com;6;privata in affidamento;40,524045;15,000521;4016020655;COOPERATIVA SOCIALE;SPES UNICA;VIA DE SIO;84091;65014;Battipaglia;SA;0828347279;0828347279;coopspesunica@gmail.com;;Autorizzazione;;11544;2013-03-22 00:00:00.000;Parzialmente compilata;
170;S04;SRS10;Comunità educativa a dimensione familiare (dai 4 ai 13 anni);COMUNITA' EDUCATIVA A DIMENSIONE FAMILIARE;VIA GORIZIA;84091;65014;Battipaglia;SA;0828303176;0828303176;fagcar@libero.it;6;privata in affidamento;40,609375;14,980836;4019800657;COOPERATIVA SOCIALE;UNA CASA PER LA VITA;VIA GORIZIA;84091;65014;Battipaglia;SA;0828303176;0828303176;fagcar@libero.it;;Autorizzazione;;4069;2013-01-30 00:00:00.000;Parzialmente compilata;
171;C08;SRS11;Comunità alloggio (dai 13 ai 18 anni);comunità  alloggio Madre Teresa di Calcutta;via Nazionale Appia, 143;81040;61032;Curti;CE;08231874161;;coop.madreteresadicalcutta@hotmail.com;6;privata in affidamento;41,074034;14,290685;4037930619;;Coop. Soc. Madre Teresa di Calcutta;Via G. Garibaldi, vico VIII, NÂ° 13;81047;61047;Macerata Campania;CE;08231874161;08231874161;coop.madreteresadicalcutta@hotmail.com;cooperativamadreteresa@pec.it;Autorizzazione;autorizzazione;42795;2017-04-28 00:00:00.000;Confermata e inoltrata alla DG;2017-11-02 09:46:49.000
172;C07;SRS10;Comunità educativa a dimensione familiare (dai 4 ai 13 anni);ANTHìSEI;Via G. Savonarola 2 Vico n 3;81036;61019;Casal di Principe;CE;0818924181;;archecoop2015@gmail.com;6;privata in affidamento;41,018771;14,111749;4048370615;;ARCHE - Cooperativa Sociale;Via G. Savonarola 2 Vico n 3;81036;61074;San Cipriano d'Aver;CE;0818924181;;archecoop2015@gmail.com;;Autorizzazione;Atto di autorizzazione;89;2018-02-19 00:00:00.000;Confermata e inoltrata alla DG;2018-02-21 12:24:54.000
173;C08;SRS11;Comunità alloggio (dai 13 ai 18 anni);comunità  alloggio per minori camelia;via Appia, 24;81054;61081;San Prisco;CE;08231554387;08231554387;coopcamelia.ce@libero.it;4;privata in affidamento;41,072813;14,315159;4066560618;;Camelia societÃ  cooperativa sociale;via Santella, p.co La Perla snc;81055;61083;Santa Maria Capua V;CE;08231554387;;coopcamelia.ce@libero.it;cooperativacamelia@arubapec.it;Autorizzazione;autorizzazione;42887;2017-06-14 00:00:00.000;Confermata e inoltrata alla DG;2017-11-02 11:53:44.000
174;C08;SRS11;Comunità alloggio (dai 13 ai 18 anni);Oltre il Confine;Via Mastantuono;81055;61083;Santa Maria Capua V;CE;0823898033;0823898033;laroccia@gigapec.it;8;privata in affidamento;41,064441;14,253214;4134330614;;Cooperativa Sociale La Roccia;Via Benedetto Croce, N° 13;81055;61083;Santa Maria Capua V;CE;0823898033;0823898033;laroccia@gigapec.it;laroccia@gigapec.it;Autorizzazione;autorizzazione al funzionamento;790/C8;2016-06-23 00:00:00.000;Confermata e inoltrata alla DG;2018-03-07 12:36:49.000
175;C07;SRS11;Comunità alloggio (dai 13 ai 18 anni);COMUNITA' ALLOGGIO 'OHANA';Via dei Gerani n. 2;81030;61077;San Marcellino;CE;08119972920;0815038214;pariopportunitaonlus@libero.it;8;privata in affidamento;40,989052;14,174369;4155330618;;PARIOPPORTUNITA' COOPERATIVA SOCIALE ONLUS;Via dei Glicini n. 38;81031;61005;Aversa;CE;0815038214;08119972920;pariopportunitaonlus@libero.it;pariopportunitaonlus@pec.cgn.it;Autorizzazione/Accreditamento (art.10 comma 2-punto 2-reg. 4/2010);DETERMINAZIONE ;19;2017-02-08 00:00:00.000;Completa;
176;C07;SRS09;Casa famiglia ( da 0 a 18 anni);Sirenetta;Via Ge. C.A. della Chiesa n. 20;81030;61037;Frignano;CE;0818909836;0818909836;STELLA.STELLASOCIALE@TISCALI.IT;6;privata in affidamento;40,999335;14,191851;4164921217;;STELLA COOPERATIVA SOCIALE;Via Gen. Carlo Alberto dalla Chiesa n. 20;81030;61037;Frignano;CE;0818909836;0818909836;STELLA.STELLASOCIALE@TISCALI.IT;STELLA.STELLASOCIALE@PEC.IT;Accreditamento;DETERMINAZIONE DI ACCREDITAMENTO;84;2015-09-08 00:00:00.000;Completa;
177;C08;SRS10;Comunità educativa a dimensione familiare (dai 4 ai 13 anni);Baby Family;via S. Giovanni, 11;81020;61021;Casapulla;CE;3936508429;;coopilcamminodelleta@pec.it;6;privata in affidamento;41,086481;14,29098;4165220619;;Il Cammino dell'etÃ ;via San Giovanni, 11;81020;61021;Casapulla;CE;3936508429;;coopilcamminodelleta@pec.it;;Autorizzazione;provvedimento di autorizzazione;14/2017;2017-12-19 00:00:00.000;Confermata e inoltrata alla DG;2017-12-20 12:38:21.000
178;N32;SRS09;Casa famiglia ( da 0 a 18 anni);Associazione di promozione sociale;via S.Michele n.11;80045;63058;Pompei;NA;0811966433;0811966433;pfaccoglienza@pec.it;3;privata in affidamento;40,748752;14,49902;4199180656;ASSOCIAZIONE di Promozione sociale; ASSOCIAZIONE PROGETTO FAMIGLIA ACCOGLIENZA ONLUS;VIA GUERRITORE, 1;84010;65130;Sant'Egidio del Mon;SA;081915548;0815133129;casafamiglia@progettofamiglia.org;pfaccoglienza@pec.it;Autorizzazione/Accreditamento (art.10 comma 2-punto 2-reg. 4/2010);provvedimento;30198;2014-12-12 00:00:00.000;Confermata e inoltrata alla DG;2017-08-07 10:30:43.000
179;S01;SRS09;Casa famiglia ( da 0 a 18 anni);Oasi Maria Madre della Vita;Via B. Guerritore,1;84010;65130;Sant'Egidio del Mon;SA;081915548;0815133129;casefamiglia@progettofamiglia.org;6;privata in affidamento;40,773787;14,590558;4199180656;ASSOCIAZIONE ONLUS; ASSOCIAZIONE PROGETTO FAMIGLIA ACCOGLIENZA ONLUS;VIA GUERRITORE, 1;84010;65130;Sant'Egidio del Mon;SA;081915548;0815133129;casafamiglia@progettofamiglia.org;pfaccoglienza@pec.it;Autorizzazione;Determina;6618;2011-11-17 00:00:00.000;Confermata e inoltrata alla DG;2015-04-22 19:46:39.000
180;S01;SRS09;Casa famiglia ( da 0 a 18 anni);OASI SAN PAOLO;VIA DUOMO;84087;65135;Sarno;SA;081915548;0815133129;casafamiglia@progettofamiglia.org;5;privata in affidamento;40,826131;14,612749;4199180656;ASSOCIAZIONE ONLUS; ASSOCIAZIONE PROGETTO FAMIGLIA ACCOGLIENZA ONLUS;VIA GUERRITORE, 1;84010;65130;Sant'Egidio del Mon;SA;081915548;0815133129;casafamiglia@progettofamiglia.org;pfaccoglienza@pec.it;Accreditamento;Determina;1254;2014-12-12 00:00:00.000;Confermata e inoltrata alla DG;2015-04-22 19:46:39.000
181;S01;SRS10;Comunità educativa a dimensione familiare (dai 4 ai 13 anni);CASA EMMANUEL;VIA DEL MONTE, 15;84012;65007;Angri;SA;0815133138;081915548;casafamiglia@progettofamiglia.org;4;privata in affidamento;40,738107;14,571208;4199180656;ASSOCIAZIONE ONLUS; ASSOCIAZIONE PROGETTO FAMIGLIA ACCOGLIENZA ONLUS;VIA GUERRITORE, 1;84010;65130;Sant'Egidio del Mon;SA;081915548;0815133129;casafamiglia@progettofamiglia.org;pfaccoglienza@pec.it;Autorizzazione;;1477;2012-10-03 00:00:00.000;Parzialmente compilata;
182;N11;SRS11;Comunità alloggio (dai 13 ai 18 anni);"CASA SAIMIR" - COMUNITA' ALLOGGIO PER MINORI;VIA A. DIAZ 117;80055;63059;Portici;NA;0817762769;0810097647;casasaimir@semedipace.org;7;privata in affidamento;40,820218;14,344676;4273101214;SOCIETA' COOPERATIVA SOCIALE (L. 381/91);SEME DI PACE COOPERATIVA SOCIALE ONLUS;CORSO GARIBALDI 254 D/6;80055;63059;Portici;NA;0817753786;0810500044;info@semedipace.org;semedipace@legalmail.it;Autorizzazione;;386;2013-06-25 00:00:00.000;Parzialmente compilata;
183;S05;SRS10;Comunità educativa a dimensione familiare (dai 4 ai 13 anni);Chicco di Grano;via R.Cocchia 173;84100;65116;Salerno;SA;08999950437;08999950437;coopdelfino@virgilio.it;6;privata in affidamento;40,664494;14,802862;4374150656;COOPERATIVA SOCIALE;DELFINO;Giovanni De Caro n.11;84100;65116;Salerno;SA;089229446;089229446;coopdelfino@virgilio.it;info@pec.coopsocialedelfino.it;Autorizzazione;;215749;2012-11-20 00:00:00.000;Parzialmente compilata;
184;S08;SRS11;Comunità alloggio (dai 13 ai 18 anni);Comunità Educativa "Albero Azzurro";via verduzio 40;84040;65028;Casal Velino;SA;0974273865;;alberoazzurro@virgilio.it;8;privata in affidamento;40,190784;15,111008;4381280652;Soc coop  Onlus;Cooperativa sociale Casa Nazareth;via verduzio 40;84060;65028;Casal Velino;SA;3938153704;;alberoazzurro@virgilio.it;casanazareth@pec.it ;Accreditamento;Accreditamento;4255;2016-12-05 00:00:00.000;Confermata e inoltrata alla DG;2018-02-20 13:16:54.000
185;S01;SRS09;Casa famiglia ( da 0 a 18 anni);Arcanda;via Fabbricatore;84087;65135;Sarno;SA;081967196;081967196;strade.nuove@tiscali.it;6;privata in affidamento;40,813233;14,620765;4388780650;SOCIETA' COOPERATIVA SOCIALE;STRADE NUOVE;Via Provinciale Amendola 165;84087;65135;Sarno;SA;0815136160;0815136160;strade.nuove@tiscali.it;;Accreditamento;Determina;177;2015-03-02 00:00:00.000;Completa;2015-04-22 19:46:39.000
186;N22;SRS11;Comunità alloggio (dai 13 ai 18 anni);Comunità Alloggio per minori "COLMENA";Via Europa,15;80030;63043;Marigliano;NA;0818410775;0818410775;info@progettojonathan.com;8;privata in affidamento;40,917335;14,451752;4493511218;società;Il Gruppo - Piccola Società Cooperativa;Via Camaldoli n. 51;80030;63077;Scisciano;NA;0815192725;0818410775;info@progettojonathan.com;;Autorizzazione;;88;2012-04-17 00:00:00.000;Parzialmente compilata;
187;S01;SRS08;Comunità di pronta e transitoria accoglienza (dai 12 ai 18 anni);Alloggio il binario;VIA GILBERTO PETTI;84083;65034;Castel San Giorgio;SA;33944488111;0819535601;info@cooperativadesy.com;6;privata in affidamento;40,770438;14,675054;4516280650;SOCIETA' COOPERATIVA SOCIALE A.R.L.;DESY;VIA UGO DE CONCILIIS, 16;84083;65034;Castel San Giorgio;SA;3394448811;0819535601;info@cooperativadesy.com;;Autorizzazione;Determina;530;2013-10-15 00:00:00.000;Completa;2015-04-22 19:46:39.000
188;S02;SRS11;Comunità alloggio (dai 13 ai 18 anni);SCUGNIZZI IN RADA;Maddalena - Rotolo;84013;65037;Cava de' Tirreni;SA;089463800;089463800;coop@stradafacendo.info;8;privata in affidamento;40,696589;14,71409;4635580659;Cooperativa Sociale;Società Cooperativa Sociale Strada Facendo;Via P. Pennella, 5;84126;65116;Salerno;SA;089349380 - 089463800;0894454413;coop@stradafacendo.info;cooperativa@pec.stradafacendo.info;Accreditamento;Provvedimento di Accreditamento ComunitÃ  Alloggio;64596;2016-11-22 00:00:00.000;Confermata e inoltrata alla DG;2017-03-27 11:52:47.000
189;S02;SRS10;Comunità educativa a dimensione familiare (dai 4 ai 13 anni);MEDINA;Via Francesco Sorrentino, 19;84013;65037;Cava de' Tirreni;SA;089463800;089463800;coop@stradafacendo.info;6;privata in affidamento;40,70929;14,721114;4635580659;Cooperativa Sociale;Società Cooperativa Sociale Strada Facendo;Via P. Pennella, 5;84126;65116;Salerno;SA;089349380 - 089463800;0894454413;coop@stradafacendo.info;cooperativa@pec.stradafacendo.info;Accreditamento;Provvedimento di Accreditamento ComunitÃ  Educativa;64595;2016-11-22 00:00:00.000;Confermata e inoltrata alla DG;2017-03-27 12:00:07.000
190;S04;SRS11;Comunità alloggio (dai 13 ai 18 anni);La Casa di Pippi;Via Mar Tirreno n. 15;84098;65099;Pontecagnano Faiano;SA;0892099182;089849246;lacasadipippi@alice.it;8;privata in affidamento;40,634724;14,869353;4656300656;Cooperativa Sociale ;AGORA';Via Mar Tirreno n. 15;84098;65099;Pontecagnano Faiano;SA;0892099182;089849246;lacasadipippi@alice.it;;Autorizzazione;;1128;1900-01-01 00:00:00.000;Parzialmente compilata;
191;S03-ex-S5;SRS08;Comunità di pronta e transitoria accoglienza (dai 12 ai 18 anni);COMUNITA' EDUCATIVA "PENELOPE";VIA S. PERTINI;84020;65083;Oliveto Citra;SA;0828798266;0828435291;penelope@pec.it;6;privata in affidamento;40,689478;15,22817;4694980659;COOPERATIVA SOCIALE;SOC.COOP.SOC. "PENELOPE";VIA A. DE GASPERI;;65083;Oliveto Citra;SA;3336608721;;penelope@pec.it;;Autorizzazione;;6108;2009-06-19 00:00:00.000;Parzialmente compilata;
192;N32;SRS11;Comunità alloggio (dai 13 ai 18 anni);COMUNITA' ALLOGGIO "ANGELI CUSTODI";VIA CASTELLAMMARE, 50;80054;63035;Gragnano;NA;08119544323;08119305509;pianetidiversi@pec.it;8;privata in affidamento;40,695121;14,500248;4745431215;SOCIETA' COOPERATIVA SOCIALE;COOPERATIVA SOCIALE "PIANETI DIVERSI";SAN GIOVANNI DA CAPESTRANO, 4;66054;69099;Vasto;CH;08119544323;08119305509;pianetidiversi@pec.it;pianetidiversi@pec.it;Autorizzazione;Autorizzazione ;9107;2015-04-15 00:00:00.000;Confermata e inoltrata alla DG;2018-02-02 12:21:40.000
193;N32;SRS11;Comunità alloggio (dai 13 ai 18 anni);COOPERATIVA SOCIALE "PIANETI DIVERSI";VIA CASTELLAMMARE, 50;80045;63035;Gragnano;NA;0818011772;;pianetidiversi@pec.it;8;privata in affidamento;40,695121;14,500248;4745431215;SOCIETA' COOPERATIVA SOCIALE;COOPERATIVA SOCIALE "PIANETI DIVERSI";SAN GIOVANNI DA CAPESTRANO, 4;66054;69099;Vasto;CH;08119544323;08119305509;pianetidiversi@pec.it;pianetidiversi@pec.it;Accreditamento;;9111;2015-04-15 00:00:00.000;Confermata e inoltrata alla DG;2018-02-02 12:42:09.000
194;S06;SRS11;Comunità alloggio (dai 13 ai 18 anni);MIRYAM;VIA CAP. CECCONE N.55;84082;65016;Bracigliano;Sa;081969931;081969931;marconicolao@gmail.com;8;privata in affidamento;40,82319;14,708468;4750230650;Cooperativa Sociale;ARCA;VIA S.GIOVANNI BATTISTA 2;84082;65016;Bracigliano;SA;081969931;081969931;marconicolao@gmail.com;;Autorizzazione;;604;2013-02-06 00:00:00.000;Parzialmente compilata;
195;N19;SRS10;Comunità educativa a dimensione familiare (dai 4 ai 13 anni);Piccolo Mondo Libero;Via Croce 5;80023;63011;Caivano;NA;0818345831;;piccolomondolibero@libero.it;6;privata in affidamento;40,955831;14,308291;4793951213;;Acquafredda;via Manzoni, 26;80023;63011;Caivano;NA;0818345831;;piccolomondolibero@libero.it;;Accreditamento;provvedimento;5516;2015-10-30 00:00:00.000;Confermata e inoltrata alla DG;2015-11-18 10:11:52.000
196;N15;SRS11;Comunità alloggio (dai 13 ai 18 anni);Il Girasole;Via Pantaleo 16;80010;63063;Quarto;NA;0818762447;0818762447;gentile23@virgilio.it;8;privata in affidamento;40,89074;14,1122;4826841217;Cooperativa Sociale;Il Girasole;Via Pantaleo 16;80010;63063;Quarto;NA;0818762447;0818762447;gentile23@virgilio.it;;Autorizzazione;;902;2012-06-01 00:00:00.000;Parzialmente compilata;
197;S04;SRS11;Comunità alloggio (dai 13 ai 18 anni);ARABAFENIX;Via Monte Terminio D9 Parco San Matteo;84090;65072;Montecorvino Puglia;SA;082853775;082853775;sciangrilà2010@libero.it;4;privata in affidamento;40,681293;14,946944;4832180659;Cooperativa Sociale Onlus;Sciangrilà;S.S.,18 Parco San Matteo D9;84090;65072;Montecorvino Puglia;SA;082853775;082853775;sciangrilà2010@libero.it;;Autorizzazione;;354;2011-02-07 00:00:00.000;Completa;
198;N01;SRS11;Comunità alloggio (dai 13 ai 18 anni);MARINELLA;VIA CANNAVINO 4;80126;63049;Napoli;NA;0817261191;0817261191;comunitamarinella@libero.it;7;privata in affidamento;40,864396;14,171113;4842311211;COOPERATIVA SOCIALE;MARINELLA;via Taddeo da Sessa is. C/6;80143;63049;Napoli;NA;0817261191;0817261191;comunitamarinella@libero.it;coop.socialemarinella@pec.it;Autorizzazione/Accreditamento (art.10 comma 2-punto 2-reg. 4/2010);Disposizione Dirigenziale;53;2017-07-26 00:00:00.000;Confermata e inoltrata alla DG;2017-08-14 14:38:34.000
199;N20;SRS10;Comunità educativa a dimensione familiare (dai 4 ai 13 anni);Avrai;via Brindisi 1;80011;63001;Acerra;NA;3336334855;;comunitaavrai@libero.it;6;privata in affidamento;40,937512;14,376169;4842311211;COOPERATIVA SOCIALE;MARINELLA;via Taddeo da Sessa is. C/6;80143;63049;Napoli;NA;0817261191;0817261191;comunitamarinella@libero.it;coop.socialemarinella@pec.it;Autorizzazione/Accreditamento (art.10 comma 2-punto 2-reg. 4/2010);;1025;2016-07-28 00:00:00.000;Confermata e inoltrata alla DG;2017-05-11 17:19:54.000
200;S08;SRS10;Comunità educativa a dimensione familiare (dai 4 ai 13 anni);Casa  Mamma Graziella;via Belvedere n° 20;84060;65085;Orria;Sa;3381835841;;casamammagraziella@libero.it;6;privata in affidamento;40,335615;15,258016;4846720656;Cooperativa sociale  "Casa Mamma Graziella";CASA MAMMA GRAZIELLA;via  Belvedere n° 20;84060;65085;Orria;SA;3381835841;;casamammagraziella@libero.it;;Autorizzazione;;2296;2012-07-31 00:00:00.000;Parzialmente compilata;
201;S01_2;SRS11;Comunità alloggio (dai 13 ai 18 anni);THOMAS SANKARA;VIA INCORONATI, 26;84012;65007;Angri;SA;08119143053;;contattokalimera@gmail.com;8;privata in affidamento;40,73968;14,571648;4909341218;Soc. Cooperativa Sociale;Kalimera Società Cooperativa Sociale;Via Monterignuso n.16;80077;63037;Ischia;NA;081902089;081902089;contattokalimera@virgilio.it;contattokalimera@pec.it;Autorizzazione;determina dirigenziale;443;2018-04-12 00:00:00.000;Confermata e inoltrata alla DG;2018-04-13 09:35:05.000
202;S10;SRS11;Comunità alloggio (dai 13 ai 18 anni);Casa dei Popoli;Via Roma snc;84030;65126;San Rufo;SA;3495632510;;cooperativairis@email.it;8;privata in affidamento;40,434222;15,463718;4926940653;;IRIS;Via Foce n.108 ;84030;65129;Sant'Arsenio;SA;3495632510;;cooperativairis@email.it;;Autorizzazione;Determina dirigenziale;41;2016-09-27 00:00:00.000;Confermata e inoltrata alla DG;2017-11-29 17:58:08.000
203;N20;SRS11;Comunità alloggio (dai 13 ai 18 anni);Sicily;Via  Giovanni Soriano  n. 117;80011;63001;Acerra;NA;0818857179;0815205969;cooperativanazareth@libero.it;6;privata in affidamento;40,944398;14,377168;5042901214;Società Cooperativa;Cooperativa sociale Nazareth;Corso Garibaldi, 7;80011;63001;Acerra;NA;0818857179;0815205969;cooperativanazareth@libero.it;;Accreditamento;DETERMINA;742;2014-05-14 00:00:00.000;Confermata e inoltrata alla DG;2015-03-10 14:44:46.000
204;S10;SRS11;Comunità alloggio (dai 13 ai 18 anni);UN MONDO A COLORI 1;Via Roma n. 1 – primo piano;84030;65010;Atena Lucana;SA;097579578;097579578;operadiunaltro@legalmail.it;6;privata in affidamento;40,454459;15,552218;5163920654;;Cooperativa Sociale L’OPERA DI UN ALTRO;Via Ferraria snc;84036;65114;Sala Consilina;SA;3886569739;;operadiunaltro@legalmail.it;operadiunaltro@legalmail.it;Autorizzazione;Determina dirigenrziale;39;2016-09-27 00:00:00.000;Completa;
205;S10;SRS11;Comunità alloggio (dai 13 ai 18 anni);UN MONDO A COLORI 2;Via Roma n. 1 – secondo piano;84030;65010;Atena Lucana;SA;097579578;097579578;operadiunaltro@legalmail.it;4;privata in affidamento;40,454459;15,552218;5163920654;;Cooperativa Sociale L’OPERA DI UN ALTRO;Via Ferraria snc;84036;65114;Sala Consilina;SA;3886569739;;operadiunaltro@legalmail.it;operadiunaltro@legalmail.it;Autorizzazione;Determina dirigenziale;40;2016-09-27 00:00:00.000;Completa;
206;S10;SRS11;Comunità alloggio (dai 13 ai 18 anni);Casa Sorrisi;Via Giovanni XXXIII snc;84033;65076;Montesano sulla Mar;SA;097579578;097579578;operadiunaltro@legalmail.it;8;privata in affidamento;40,27763;15,71038;5163920654;;Cooperativa Sociale L’OPERA DI UN ALTRO;Via Ferraria snc;84036;65114;Sala Consilina;SA;3886569739;;operadiunaltro@legalmail.it;operadiunaltro@legalmail.it;Autorizzazione;Determina dirigenziale;40;2015-10-20 00:00:00.000;Completa;
207;S10;SRS11;Comunità alloggio (dai 13 ai 18 anni);Un Sentiero di Stelle;Via Canalicchio snc;84033;65076;Montesano sulla Mar;SA;097579578;097579578;operadiunaltro@legalmail.it;8;privata in affidamento;40,276275;15,702874;5163920654;;Cooperativa Sociale L’OPERA DI UN ALTRO;Via Ferraria snc;84036;65114;Sala Consilina;SA;3886569739;;operadiunaltro@legalmail.it;operadiunaltro@legalmail.it;Autorizzazione;Determina dirigenziale ;69;2017-11-24 00:00:00.000;Confermata e inoltrata alla DG;2017-11-29 16:37:13.000
208;S08;SRS11;Comunità alloggio (dai 13 ai 18 anni);Comunità Alloggio per Minori;san Marco di Castellabate;84048;65031;Castellabate;SA;974966768;;assgdevivo@libero.it;6;privata in affidamento;40,267403;14,938975;5167390656;;Associazione "G. De Vivo";contrada Mazzarella;84048;65031;Castellabate;SA;974966768;;assgdevivo@libero.it;;Autorizzazione;autorizzazione al funzionamento;447;2016-02-06 00:00:00.000;Confermata e inoltrata alla DG;2018-02-28 12:43:53.000
209;N26;SRS11;Comunità alloggio (dai 13 ai 18 anni);BABY GARDEN;VIA GIORDANO, 98;80040;63082;Terzigno;NA;0815296408;;coopmacalù@libero.it;8;privata in affidamento;40,808142;14,501535;5227031217;COOPERATIVA SOCIALE; MACALU  SOCIETA'  COOPERATIVA SOCIALE;CORSO LEONARDO DA VINCI, 455;80040;63082;Terzigno;NA;0815293206;0815293206;coopmacalù@libero.it;;Autorizzazione;;3160;2012-02-22 00:00:00.000;Parzialmente compilata;
210;N26;SRS10;Comunità educativa a dimensione familiare (dai 4 ai 13 anni);ALBA NUOVA;CORSO LEONARDO DA VINCI, 455;80040;63082;Terzigno;NA;0815293206;0815293206;coopmacalù@libero.it;6;privata in affidamento;40,80258;14,502126;5227031217;COOPERATIVA SOCIALE; MACALU  SOCIETA'  COOPERATIVA SOCIALE;CORSO LEONARDO DA VINCI, 455;80040;63082;Terzigno;NA;0815293206;0815293206;coopmacalù@libero.it;;Autorizzazione;;3162;2012-02-22 00:00:00.000;Parzialmente compilata;
211;N17;SRS11;Comunità alloggio (dai 13 ai 18 anni);COMUNITA' ALLOGGIO "IL PICCOLO PRINCIPE";VIA F. TURATI N. 4;80028;63036;Grumo Nevano;NA;0815050105;0815050105;info@civitas-cooperativa.it;8;privata in affidamento;40,937556;14,264262;5253861214;COOPERATIVA SOCIALE;CIVITAS SOCIETA' COOPERATIVA SOCIALE ONLUS;VIA PADULA 75/79;80028;63036;Grumo Nevano;NA;0815050105;0815050105;INFO@CIVITAS-COOPERATIVA.IT;;Accreditamento;provvedimento di accreditamento;934;2015-06-30 00:00:00.000;Confermata e inoltrata alla DG;2017-05-22 14:46:17.000
212;S08;SRS09;Casa famiglia ( da 0 a 18 anni);Il Cucciolo;Contrada Difesa, 1;84070;65124;San Mauro la Bruca;SA;3293938711;;mayamultiservice@pec.it;6;privata in affidamento;40,123882;15,290326;5328840656;;MAYA MUTISERVICE;Contrada Difesa, 1;84070;65124;San Mauro la Bruca;SA;3293938711;;mayamultiservice@pec.it;;Accreditamento;accreditamento;2977;2015-10-12 00:00:00.000;Confermata e inoltrata alla DG;2018-02-20 13:16:28.000
213;S08;SRS10;Comunità educativa a dimensione familiare (dai 4 ai 13 anni);LA TORRE;Via Teodosio De Dominicic;84046;65009;Ascea;SA;9741936264;;comunitalatorre@virgilio.it;6;privata in affidamento;40,1434;15,184585;5348670653;Società Responsabilità Limitata Semplificata;TERZA STRADA SRL;Generale Nastri Ciro,n.97/101;84084;65052;Fisciano;SA;3939343526;089951175;terzastrada@virgilio.it;;Autorizzazione;Autorizzazione al funzionamento;2701;2017-07-05 00:00:00.000;Confermata e inoltrata alla DG;2018-02-20 13:15:43.000
214;S10;SRS11;Comunità alloggio (dai 13 ai 18 anni);Comunità Alloggio OLTREMARE;Via I° Municipio;84034;65087;Padula;SA;097579578;097579578;ilsentiero@pec.it;8;privata in affidamento;40,341122;15,659138;5541220652;;Cooperativa Sociale IL SENTIERO;Piazza IV Novembre snc;84039;65146;Teggiano;SA;097579578;097579578;ilsentiero@pec.it;;Autorizzazione;Determina dirigenziale;14;2017-03-31 00:00:00.000;Completa;
215;S10;SRS11;Comunità alloggio (dai 13 ai 18 anni);PADRE DAMASCENO;Località Cappuccini–Piazza Ospedale Santa Maria di Costantinopoli snc;84035;65097;Polla;SA;097579578;097579578;ilsentiero@pec.it;;privata in affidamento;40,51484;15,494814;5541220652;;Cooperativa Sociale IL SENTIERO;Piazza IV Novembre snc;84039;65146;Teggiano;SA;097579578;097579578;ilsentiero@pec.it;;Autorizzazione;Determina dirigenziale;16;2017-04-05 00:00:00.000;Parzialmente compilata;
216;S10;SRS11;Comunità alloggio (dai 13 ai 18 anni);Peter Pan 1;Via Mautoni snc;84038;65136;Sassano;SA;097579578;097579578;ilsentiero@pec.it;8;privata in affidamento;40,35167;15,59318;5541220652;;Cooperativa Sociale IL SENTIERO;Piazza IV Novembre snc;84039;65146;Teggiano;SA;097579578;097579578;ilsentiero@pec.it;;Autorizzazione;Determina dirigenziale;19;2017-04-18 00:00:00.000;Confermata e inoltrata alla DG;2017-11-29 17:54:11.000
217;S10;SRS11;Comunità alloggio (dai 13 ai 18 anni);Peter Pan 2;Via Mautoni snc;84038;65136;Sassano;SA;097579578;097579578;ilsentiero@pec.it;8;privata in affidamento;40,35167;15,59318;5541220652;;Cooperativa Sociale IL SENTIERO;Piazza IV Novembre snc;84039;65146;Teggiano;SA;097579578;097579578;ilsentiero@pec.it;;Autorizzazione;Determina dirigenziale;20;2017-04-28 00:00:00.000;Confermata e inoltrata alla DG;2017-11-29 17:54:11.000
218;S01_2;SRS11;Comunità alloggio (dai 13 ai 18 anni);Betania - Comunità alloggio per minori;via Della Resistenza Trav. Pagano, 2;84018;65137;Scafati;SA;08119853418;08119853418;info@cooperativabetania.org;8;privata in affidamento;40,760211;14,53776;5549950656;;Betania - Società Cooperativa Sociale;via Guglielmo Oberdan 16/20;84018;65137;Scafati;SA;3358466969;;info@cooperativabetania.org;info@pec.cooperativabetania.org;Accreditamento;Determina dirigenziale;25;2017-04-03 00:00:00.000;Confermata e inoltrata alla DG;2017-05-18 10:37:12.000
219;S01_2;SRS11;Comunità alloggio (dai 13 ai 18 anni);FRANCESCO D'ASSISI;VIA PIETRO MELCHIADE, 27;84018;65137;Scafati;SA;3358466969;;info@pec.cooperativabetania.org;8;privata in affidamento;40,748599;14,527702;5549950656;;Betania - Società Cooperativa Sociale;via Guglielmo Oberdan 16/20;84018;65137;Scafati;SA;3358466969;;info@cooperativabetania.org;info@pec.cooperativabetania.org;Autorizzazione;determina dirigenziale;344;2018-03-27 00:00:00.000;Confermata e inoltrata alla DG;2018-04-12 17:49:12.000
220;N23;SRS11;Comunità alloggio (dai 13 ai 18 anni);WILLY COYOTE;VIA SAN MASSIMO, 511/513;80035;63050;Nola;NA;0813626459;0813626521;giacomo.desena@hotmail.it;4;privata in affidamento;40,930228;14,516862;5588951219;Cooperativa Sociale;Cooperativa Sociale Lindberg;Via Mario De Sena, 25;80035;63050;Nola;NA;0813626459;0813626521;giacomo.desena@hotmail;;Accreditamento;Determina Dirigenziale;84;2015-04-14 00:00:00.000;Confermata e inoltrata alla DG;2015-05-22 10:38:45.000
221;S03-ex-S5;SRS11;Comunità alloggio (dai 13 ai 18 anni);COMUNITA' ALLOGGIO PER MINORI;VIA ACQUA DEI PIOPPI II TRAVERSA, 13;84025;65050;Eboli;SA;08281998226;;orizzontesereno2017@gmail.com;6;privata in affidamento;40,597576;15,073658;5602990656;;ORIZZONTE SERENO;VIA ACQUA DEI PIOPPI II TRAVERSA, 13;84025;65050;Eboli;SA;08281998226;;orizzontesereno2017@gmail.com;;Accreditamento;;1;2018-03-20 00:00:00.000;Confermata e inoltrata alla DG;2018-04-13 13:12:56.000
222;C06;SRS11;Comunità alloggio (dai 13 ai 18 anni);Nuova Aries;Via Contrada Centrangolo 27;81030;61043;Gricignano di Avers;CE;0815029553;0815029553;comunitaminori.itaca@libero.it;8;privata in affidamento;40,98591;14,23591;5609950653;;Nuova Aries;Via Contrada Centrangolo 27;84096;65073;Montecorvino Rovell;SA;3920345773;;comunitaminori.itaca@libero.it;;Accreditamento;accreditamento;15;2018-06-05 00:00:00.000;Confermata e inoltrata alla DG;2018-06-12 10:53:12.000
223;C01;SRS11;Comunità alloggio (dai 13 ai 18 anni);Casa Pinardi;Via Don Bosco n.32-34;81100;61022;Caserta;CE;0823215727;;apspiccolipassi@pec.it;8;privata in affidamento;41,070701;14,336086;5789371217;;Piccoli Passi Grandi Sogni Onlus;Via Margherita di Savoia n.22;80058;63083;Torre Annunziata;NA;0823215727;;apspiccolipassi@pec.it;apspiccolipassi@pec.it;Accreditamento;determina dirigenziale;39;2015-12-21 00:00:00.000;Confermata e inoltrata alla DG;2017-03-23 12:45:05.000
224;N25;SRS11;Comunità alloggio (dai 13 ai 18 anni);Raggio di Sole;Via Canonico Marciano,37;80048;63072;Sant'Anastasia;NA;0813629334;0813629334;coop_coordinamento@libero.it;8;privata in affidamento;40,863919;14,395452;5807961213;Società Cooperativa  Sociale Onlus;Panta Rei Società Cooperativa Sociale;via Repubbliche Marinare   340;80147;63049;Napoli;NA;3286565589;  0810386098;ccssamministrazione@libero.it;pantarei@gigapec.it;Accreditamento;;39;2015-04-29 00:00:00.000;Confermata e inoltrata alla DG;2017-05-23 15:51:53.000
225;N20;SRS11;Comunità alloggio (dai 13 ai 18 anni);Posthac-D'ora in poi…;Via Palmiro Togliatti n. 18;80011;63001;Acerra;NA;0818859332;0810060342;montessoriaccoglie@libero.it;6;privata in affidamento;40,949858;14,368652;5900070631;Società Cooperativa;Cooperativa Montessori arl;Via Perlasca,35;80011;63001;Acerra;NA;0818859332;0810060342;montessoriaccogli@libero.it;;Accreditamento;DETERMINA;1397;2014-10-15 00:00:00.000;Confermata e inoltrata alla DG;2015-03-20 11:55:16.000
226;N23;SRS11;Comunità alloggio (dai 13 ai 18 anni);I have a dream;Via G. Bruno, 3;80033;63027;Cicciano;NA;0818261430;0818261430;ihaveadreamcicciano@gmail.com;8;privata in affidamento;40,962361;14,53794;5957841215;Società Cooperativa a r.l.;Società Cooperativa Sociale "Nuova Vita" a r.l.;Via Libertà, 31;80033;63027;Cicciano;NA;0818261430;0818261430;ihaveadreamcicciano@gmail.com;;Accreditamento;Determina Dirigenziale;169;2015-07-06 00:00:00.000;Confermata e inoltrata alla DG;2015-07-14 10:36:44.000
227;N23;SRS11;Comunità alloggio (dai 13 ai 18 anni);Jonathan;via Camaldoli, 51;80030;63077;Scisciano;NA;0818445904;0815198677;info@progettojonathan.com;8;privata in affidamento;40,909794;14,47677;6060871214;società responsabilità limitata;JONATHAN s.r.l. IMPRESA SOCIALE;Via camaldoli, 51;80030;63077;Scisciano;NA;0818445904;0815198677;info@progettojonathan.com;;Accreditamento;Determina Dirigenziale;360;2016-07-04 00:00:00.000;Confermata e inoltrata alla DG;2017-05-26 17:03:44.000
228;N23;SRS11;Comunità alloggio (dai 13 ai 18 anni);Oliver;Via Alveo Somma, 50;80030;63077;Scisciano;NA;0818445251;0815196987;info@progettojonathan.com;8;privata in affidamento;40,893041;14,471142;6060871214;società responsabilità limitata;JONATHAN s.r.l. IMPRESA SOCIALE;Via camaldoli, 51;80030;63077;Scisciano;NA;0818445904;0815198677;info@progettojonathan.com;;Accreditamento;Determina Dirigenziale;361;2016-07-04 00:00:00.000;Confermata e inoltrata alla DG;2017-05-26 22:51:06.000
229;N33;SRS11;Comunità alloggio (dai 13 ai 18 anni);Comunità  alloggio "Primavera";Vico III Santo Stefano, 12;80062;63046;Meta;NA;3474146422;;esserecoopsociale@libero.it;8;privata in affidamento;40,642887;14,41734;6068751210;;ESSERE COOPERATIVA SOCIALE;Vico III Santo Stefano 8 ;80062;63046;Meta;NA;3474146422;;esserecoopsociale@libero.it;esserecoopsociale@pec.it;Accreditamento;Accreditamento;1289;2015-07-20 00:00:00.000;Completa;
230;N33;SRS10;Comunità educativa a dimensione familiare (dai 4 ai 13 anni);Comunità educativa a dimensione familiare "Ariel";Vico III Santo Stefano, 12;80062;63046;Meta;NA;3474146422;;esserecoopsociale@libero.it;6;privata in affidamento;40,642887;14,41734;6068751210;;ESSERE COOPERATIVA SOCIALE;Vico III Santo Stefano 8 ;80062;63046;Meta;NA;3474146422;;esserecoopsociale@libero.it;esserecoopsociale@pec.it;Accreditamento;Accreditamento;1288;2015-07-20 00:00:00.000;Parzialmente compilata;
231;N19;SRS11;Comunità alloggio (dai 13 ai 18 anni);Comunità Alloggio Progetto Eunoè;Via Spineti 15;80023;63011;Caivano;NA;08119250138;08119250138;info@progettoeunoe.it;8;privata in affidamento;40,958772;14,297947;6084691218;S.a.s;Progetto Eunoè s.a.s. di Acerra Ornella & c.;Via Spineti 15;80023;63011;Caivano;NA;08119250138;08119250138;info@progettoeunoe.it;;Autorizzazione;Provvedimento;22311;2014-07-22 00:00:00.000;Confermata e inoltrata alla DG;2015-05-30 09:16:22.000
232;C06;SRS11;Comunità alloggio (dai 13 ai 18 anni);PROGETTO MARGHERITA;VIA ETTORE CORCIONI, N.25;81031;61005;Aversa;CE;081283848;0815630508;POSTMASTER@ASSOCIAZIONEGAIA.IT;5;privata in affidamento;40,97539;14,211229;6116041218;;G.A.I.A . Ente Morale;Calata Ponte Casanova 3;80143;63049;Napoli;NA;081283848;0815630508;POSTMASTER@ASSOCIAZIONEGAIA.IT;;;;;;Confermata e inoltrata alla DG;2018-03-05 13:0:45.000
233;N20;SRS11;Comunità alloggio (dai 13 ai 18 anni);La casa di Myriam;Via  Spiniello;80011;63001;Acerra;NA;0815804355;0815205420;elficoop.soc.onlus@alice.it;6;privata in affidamento;40,944378;14,390565;6209991212;Società Cooperativa;Cooperativa sociale ONLUS ELFI;via Brindisi n. 1;80011;63001;Acerra;NA;0815205420;0815205420;elficoop.soc.onlus@alice.it;;Accreditamento;determina;1397;2014-10-15 00:00:00.000;Confermata e inoltrata alla DG;2015-01-27 16:13:55.000
234;N20;SRS11;Comunità alloggio (dai 13 ai 18 anni);Casa dei Sogni;Via Mulino Vecchio,  n.8;80011;63001;Acerra;NA;3292192629;0813195170;rosacoppola10@gmail.com;8;privata in affidamento;40,953141;14,373539;6281181211;Società Cooperativa;Cooperativa sociale Cassandra;Via Angelo Camillo De Meis, n.228;80147;63049;Napoli;NA;3292192629;0813195170;rosacoppola10@gmail.com;;Accreditamento;determina;1759;2014-12-23 00:00:00.000;Confermata e inoltrata alla DG;2015-02-11 15:17:20.000
235;A05;SRS11;Comunità alloggio (dai 13 ai 18 anni);"i TERRIBILI";via NAZIONALE, 66;83050;64069;Parolise;AV;0825675941;08251800504;QUIPUS@DIEFFEPEC.IT;8;privata in affidamento;40,931347;14,884441;6299571213;Impresa Sociale srl;Quipus;Via Scrofeta, 2;83100;64008;Avellino;AV;0825675941;08251800504;QUIPUS@DIEFFEPEC.IT;;Autorizzazione;NOTA;1037/59;2016-03-04 00:00:00.000;Confermata e inoltrata alla DG;2016-05-11 10:47:42.000
236;N23;SRS10;Comunità educativa a dimensione familiare (dai 4 ai 13 anni);San Giovanni Bosco ;via Circumvallazione, 16 ;80032;63018;Casamarciano;NA;0815125091;0815125091;cooperativasociale-lcg@pec.it;6;privata in affidamento;40,930804;14,548522;6334261218;Società Cooperativa;Cooperativa Sociale L. C. G.;Via Silvio Pellico,11;80035;63050;Nola;NA;0815125091;0815125091;cooperativasociale-lcg@pec.it;cooperativasociale-lcg@pec.it;Autorizzazione;DETERMINA DIRIGEZIALE;381;2015-11-19 00:00:00.000;Confermata e inoltrata alla DG;2015-12-02 10:03:52.000
237;N23;SRS11;Comunità alloggio (dai 13 ai 18 anni);Comunità alloggio per minori "Daqqui";Corso Umberto I, 132;80039;63076;Saviano;NA;0810206135;;coop.ricomincio@gmail.com;6;privata in affidamento;40,925222;14,469838;6380511219;;Ricomincio;Corso Umberto I;80039;63076;Saviano;NA;0810206135;;coop.ricomincio@gmail.com;ricomincioonlus@legalmail;Accreditamento;Determina Dirigenziale;170;2015-07-06 00:00:00.000;Confermata e inoltrata alla DG;2015-07-14 11:30:57.000
238;N32;SRS11;Comunità alloggio (dai 13 ai 18 anni);consorzio Matrix;via castellammare n. 50;80054;63035;Gragnano;NA;0818011977;08119305509;cons.matrix@pec.it;8;privata in affidamento;40,695121;14,500248;6390101217;;Consorzio Matrix;Via Castellammare, 50;80054;63035;Gragnano;NA;0818011977;08119305509;simonecaner@hotmail.com;cons.matrix@pec.it;Autorizzazione/Accreditamento (art.10 comma 2-punto 2-reg. 4/2010);provvedimento;5737;2016-03-02 00:00:00.000;Confermata e inoltrata alla DG;2017-08-07 11:41:14.000
239;C08;SRS11;Comunità alloggio (dai 13 ai 18 anni);Iris;Via della Pietra, N° 4;81046;61042;Grazzanise;CE;0818359352;0818360194;info@medea-coop.it;8;privata in affidamento;41,09093;14,104307;6611261212;;Cooperativa Sociale Medea;Via Semonella, N° 4;80023;63011;Caivano;NA;0818359352;0818360194;info@medea-coop.it;infomedea@pec.it;Accreditamento;Verbale;19-2015;2015-10-15 00:00:00.000;Confermata e inoltrata alla DG;2015-11-05 12:47:24.000
240;N19;SRS11;Comunità alloggio (dai 13 ai 18 anni);MOMUNITA' ALLOGGIO NOAH;VIA SANNITICA NORD, N.30;80023;63011;Caivano;NA;0818306098;0818360194;INFOMEDEA@PEC.IT;8;privata in affidamento;40,956764;14,304609;6611261212;;Cooperativa Sociale Medea;Via Semonella, N° 4;80023;63011;Caivano;NA;0818359352;0818360194;info@medea-coop.it;infomedea@pec.it;Accreditamento;provvedimento di accreditamento;119;2018-01-30 00:00:00.000;Confermata e inoltrata alla DG;2018-02-26 13:38:17.000
241;N19;SRS11;Comunità alloggio (dai 13 ai 18 anni);Nevè;via Semonella 104;80023;63011;Caivano;NA;0818309403;0818309403;info@medea-coop.it;8;privata in affidamento;40,977807;14,30378;6611261212;;Cooperativa Sociale Medea;Via Semonella, N° 4;80023;63011;Caivano;NA;0818359352;0818360194;info@medea-coop.it;infomedea@pec.it;Accreditamento;provvedimento;5518;2015-10-30 00:00:00.000;Confermata e inoltrata alla DG;2015-11-19 17:14:16.000
242;N19;SRS11;Comunità alloggio (dai 13 ai 18 anni);Ismael;Via S. Gregorio 4;80020;63030;Crispano;NA;3338958804;;info@medea-coop.it;8;privata in affidamento;40,954517;14,288148;6611261212;;Cooperativa Sociale Medea;Via Semonella, N° 4;80023;63011;Caivano;NA;0818359352;0818360194;info@medea-coop.it;infomedea@pec.it;Accreditamento;provvedimento;5514;2015-10-30 00:00:00.000;Confermata e inoltrata alla DG;2015-11-19 17:19:49.000
243;N19;SRS10;Comunità educativa a dimensione familiare (dai 4 ai 13 anni);Noah;Strada Sannitica 30;80023;63011;Caivano;NA;0818309403;0818309403;info@medea-coop.it;6;privata in affidamento;40,963892;14,307118;6611261212;;Cooperativa Sociale Medea;Via Semonella, N° 4;80023;63011;Caivano;NA;0818359352;0818360194;info@medea-coop.it;infomedea@pec.it;Accreditamento;provvedimento;5515;2015-10-30 00:00:00.000;Confermata e inoltrata alla DG;2015-11-19 17:11:11.000
244;N19;SRS10;Comunità educativa a dimensione familiare (dai 4 ai 13 anni);Alia;Via S. Gregorio n.4;80020;63030;Crispano;NA;3338958804;;info@medea-coop.it;6;privata in affidamento;40,954517;14,288148;6611261212;;Cooperativa Sociale Medea;Via Semonella, N° 4;80023;63011;Caivano;NA;0818359352;0818360194;info@medea-coop.it;infomedea@pec.it;Accreditamento;provvedimento;5509;2015-10-30 00:00:00.000;Confermata e inoltrata alla DG;2015-11-19 17:25:50.000
245;C07;SRS11;Comunità alloggio (dai 13 ai 18 anni);Comunità Alloggio “Angels”;VIA GIANNONE SNC;81030;61098;Villa di Briano;CE;0810123144;0810123144;angels@alicecooperativasocialeonlus.it;8;privata in affidamento;40,998311;14,167774;6773261216;COOPERATIVA SOCIALE ONLUS;ALICE SOCIETA' COOPERATIVA SOCIALE O.N.L.U.S.;Via Montecalvario, 32;80134;63049;Napoli;NA;3883410207;;info@alicecooperativasocialeonlus.it;;Accreditamento;DETERMINAZIONE DI ACCREDITAMENTO;84;2015-09-08 00:00:00.000;Completa;
246;C07;SRS11;Comunità alloggio (dai 13 ai 18 anni);ENEA;VIA GIOTTO N. 19 - 81030;81030;61098;Villa di Briano;CE;0810123144;0810123144;ENEA.COOP@LIBERO.IT;6;privata in affidamento;41,002592;14,166135;6773261216;COOPERATIVA SOCIALE ONLUS;ALICE SOCIETA' COOPERATIVA SOCIALE O.N.L.U.S.;Via Montecalvario, 32;80134;63049;Napoli;NA;3883410207;;info@alicecooperativasocialeonlus.it;;Autorizzazione;Autorizzazione;118;2016-02-15 00:00:00.000;Completa;
247;N01;SRS10;Comunità educativa a dimensione familiare (dai 4 ai 13 anni);L'Armonia del sole;vico delle nocelle,46;80100;63049;Napoli;NA;0815444959;0815637156;carraturavalentina@virgilio.it;4;privata in affidamento;40,853483;14,240753;6804681218;Cooperativa Sociale; Il Sole;Vico delle Nocelle,46;80100;63049;Napoli;NA;0815444959;;carraturavalentina@virgilio.it;;Accreditamento;Disposizione Dirigenziale;74;2017-09-13 00:00:00.000;Completa;2017-10-26 12:49:44.000
248;N16;SRS10;Comunità educativa a dimensione familiare (dai 4 ai 13 anni);COMUNITA' EDUCATIVA "SHALOM";CORSO ITALIA N.280/A;80010;63087;Villaricca;NA;0813300688;0813300688;shalom.2006@libero.it;6;privata in affidamento;40,917422;14,182423;6892681211;associazione di promozione sociale shalom O.N.L.U.;COMUNITA' EDUCATIVA  DI TIPO FAMILIARE EMMAUS;CORSO ITALIA 280/A;80010;63087;Villaricca;NA;0813300688;0813300688;shalom.2006@libero.it;shalom.2006@pec.libero.it;Autorizzazione;decreto;8;2015-05-28 00:00:00.000;Completa;
249;N16;SRS10;Comunità educativa a dimensione familiare (dai 4 ai 13 anni);COMUNITA' EDUCATIVA EMMAUS;CORSO ITALIA 280/A PARCO UMBERTO;80010;63087;Villaricca;NA;0813300688;0813300688;shalom.2006@libero.it;6;privata in affidamento;40,9196;14,172752;6892681211;associazione di promozione sociale shalom O.N.L.U.;associazione di promozione sociale shalom O.N.L.U.S.;CORSO ITALIA 280/A;80010;63087;Villaricca;NA;0813300688;0813300688;shalom.2006@libero.it;shalom.2006@pec.libero.it;Autorizzazione;decreto;9;2015-05-28 00:00:00.000;Confermata e inoltrata alla DG;2018-03-06 11:43:26.000
250;N01;SRS11;Comunità alloggio (dai 13 ai 18 anni);Manituana;via S. Andrea Avellino 43;80100;63049;Napoli;NA;0815435924;0814616916;coopluomoeillegno@libero.it;8;privata in affidamento;40,88658;14,274893;6950760634; Cooperativa Sociale;L'uomo e il legno;viale  della Resistenza 15;80145;63049;Napoli;NA;0815435924;0814616916;coopluomoeillegno@libero.it;;Accreditamento;Disposizione Dirigenziale;92;2015-05-18 00:00:00.000;Confermata e inoltrata alla DG;2015-05-19 14:05:29.000
251;C03;SRS11;Comunità alloggio (dai 13 ai 18 anni);Giu & Giò;Via 4 Strade, 10;81050;61036;Francolise;CE;0823884315;0823502078;coopluigidelprete@libero.it;6;privata in affidamento;41,185122;14,054436;6980641218;società cooperativa;Luigi Del Prete Società Cooperativa sociale;Via G. Gentile, 4;80024;63016;Cardito;NA;3807158273;08119367716;cooperativaluigidelprete@libero.it;;Autorizzazione;;2;2012-09-19 00:00:00.000;Parzialmente compilata;
252;C03;SRS11;Comunità alloggio (dai 13 ai 18 anni);Kelly Nicol;Via 4 Strade, 10/bis;81050;61036;Francolise;CE;0823884315;0823502078;coopluigidelprete@libero.it;8;privata in affidamento;41,185122;14,054436;6980641218;società cooperativa;Luigi Del Prete Società Cooperativa sociale;Via G. Gentile, 4;80024;63016;Cardito;NA;3807158273;08119367716;cooperativaluigidelprete@libero.it;;Autorizzazione;;1;2012-09-19 00:00:00.000;Completa;
253;N17;SRS11;Comunità alloggio (dai 13 ai 18 anni);COMUNITA' ALLOGGIO "LUIGI DEL PRETE";via Milano n. 16/18;80027;63032;Frattamaggiore;NA;3807158273;08119367716;coopluigidelprete@libero.it;8;privata in affidamento;40,936145;14,275956;6980641218;società cooperativa;Luigi Del Prete Società Cooperativa sociale;Via G. Gentile, 4;80024;63016;Cardito;NA;3807158273;08119367716;cooperativaluigidelprete@libero.it;;Accreditamento;provvedimento di accreditamento;323;2016-04-05 00:00:00.000;Confermata e inoltrata alla DG;2017-05-22 13:31:04.000
254;N23;SRS10;Comunità educativa a dimensione familiare (dai 4 ai 13 anni);Villa Gaia;via Vittorio Veneto, 143;80035;63050;Nola;NA;0813151663;;gebaservicevillagaia@gmail.com;5;privata in affidamento;40,887256;14,514213;7023091213;;GEBA SERVICE;via Vittorio Veneto, 143;80035;63050;Nola;NA;0813151663;;gebaservicevillagaia@gmail.com;;Autorizzazione;DETERMINA DIRIGEZIALE;291;2016-05-25 00:00:00.000;Confermata e inoltrata alla DG;2017-05-26 23:19:39.000
255;N23;SRS11;Comunità alloggio (dai 13 ai 18 anni);Mamma Chioccia;via San Giovanni dei cavoli, 28;80030;63077;Scisciano;NA;0815862923;;esculapio.coop@gmail.com;8;privata in affidamento;40,914232;14,485024;7062211219;;Esculapio;corso Europa, 100;80016;63041;Marano di Napoli;NA;0815862923;;esculapio.coop@gmail.com;esculapio.coop@pec.it;Accreditamento;Determina Dirigenziale;R.G. n. 764;2017-06-06 00:00:00.000;Confermata e inoltrata alla DG;2017-06-07 11:08:40.000
256;C08;SRS11;Comunità alloggio (dai 13 ai 18 anni);Giardino dell'Eden;Corso A. Moro, NÂ° 100;81055;61083;Santa Maria Capua V;CE;0818852884;0813198538;coopsoczante@libero.it;6;privata in affidamento;41,082087;14,254187;7381841217;Società Cooperativa;Cooperativa Sociale Zante;Via Conte di Lemos, n. 4;80011;63001;Acerra;NA;0818852884;0813198538;coopsoczante@libero.it;;Accreditamento;accreditamento;43040;2017-09-18 00:00:00.000;Confermata e inoltrata alla DG;2017-11-02 11:53:44.000
257;N20;SRS11;Comunità alloggio (dai 13 ai 18 anni);Ghebel;via Imbriani n.7;80011;63001;Acerra;NA;0818852884;0818852884;coopsoczante@libero.it;8;privata in affidamento;40,951583;14,360764;7381841217;Società Cooperativa;Cooperativa Sociale Zante;Via Conte di Lemos, n. 4;80011;63001;Acerra;NA;0818852884;0813198538;coopsoczante@libero.it;;Autorizzazione/Accreditamento (art.10 comma 2-punto 2-reg. 4/2010);determina;671;2015-06-08 00:00:00.000;Confermata e inoltrata alla DG;2015-07-21 14:52:32.000
258;N20;SRS11;Comunità alloggio (dai 13 ai 18 anni);Piccolo Patto;via Pulcrano 38;80011;63001;Acerra;NA;0818852884;0818852884;cvoopsoczante@libero.it;6;privata in affidamento;40,940803;14,371757;7381841217;Società Cooperativa;Cooperativa Sociale Zante;Via Conte di Lemos, n. 4;80011;63001;Acerra;NA;0818852884;0813198538;coopsoczante@libero.it;;Accreditamento;determina;1760;2014-12-23 00:00:00.000;Confermata e inoltrata alla DG;2015-03-20 11:54:48.000
259;C01;SRS11;Comunità alloggio (dai 13 ai 18 anni);Alice;Via Ferrarecce, Traversa Newton n.3;81100;61022;Caserta;CE;08231971078;;albacooperativa@pec.bluephone.it;8;privata in affidamento;41,066108;14,338617;7385531210;Alba Cooperativa Sociale Onlus;ComunitÃ  alloggio per minori - Alice;Via Murillo De Petti  n.8;80024;63016;Cardito;NA;08231971078;;albacooperativa@pec.blueplane.it;;Autorizzazione;autorizzazione;5;2017-06-05 00:00:00.000;Parzialmente compilata;
260;C01;SRS10;Comunità educativa a dimensione familiare (dai 4 ai 13 anni);Alice;Via Ferrarecce, Prima Traversa Newton n.3;81100;61022;Caserta;CE;08231971078;;albacooperativa@pec.blueplane.it;6;privata in affidamento;41,072348;14,331134;7385531210;Alba Cooperativa Sociale Onlus;Alice - Comunità Educativa a Dimensione Familiare;Via Murillo De Petti  n.8;80024;63016;Cardito;NA;08231971078;;albacooperativa@pec.blueplane.it;;Autorizzazione;determina dirigenziale;31;2015-10-08 00:00:00.000;Completa;2017-03-23 12:45:05.000
261;N01;SRS27;Struttura di secondo livello per MSNA (Minori stranieri non accompagnati 16-18 anni) ex DGRC n. 631 del 15/11/2016;Gelsomina Verde;via Arcangelo Ghisleri - lotto P;80144;63049;Napoli;NA;08119848363;;infogelsominaverde@libero.it;12;privata in affidamento;40,851775;14,268124;7437631216;Cooperativa Sociale;Cooperativa Sociale (R)esistenza;Via Arcangelo Ghisleri - lotto P;80144;63049;Napoli;NA;08119848363;;coop.resistenza@libero.it;;Autorizzazione;Disposizione Dirigenziale;36;2018-03-14 00:00:00.000;Confermata e inoltrata alla DG;2018-03-15 12:49:03.000
262;N01;SRS09;Casa famiglia ( da 0 a 18 anni);Casa Balena;Calata TrinitÃ  Maggiore,53;80100;63049;Napoli;NA;08119361588;0812144623;info@ilgrilloparlanteonlus.it;7;privata in affidamento;40,846643;14,251236;7438830635;Cooperativa Sociale;Il Grillo parlante;Calata Trinità Maggiore;80100;63049;Napoli;NA;08119361588;0812144623;info@ilgrilloparlanteonlus.it;;Autorizzazione/Accreditamento (art.10 comma 2-punto 2-reg. 4/2010);Disposizione Dirigenziale;81;2017-10-11 00:00:00.000;Confermata e inoltrata alla DG;2017-10-13 15:08:30.000
263;N19;SRS10;Comunità educativa a dimensione familiare (dai 4 ai 13 anni);L'Isola dei Marmocchi;Via Papa Giovanni XXIII;80021;63002;Afragola;NA;0815265076;0815265076;amministrazione@crescereinsiemearlonlus.it;6;privata in affidamento;40,923929;14,297959;7462780631;Cooperativa sociale;Cooperativa sociale “Crescere insieme”;Trav. Corso Umberto I n.1;80078;63060;Pozzuoli;NA;0815265076;0815265076;amministrazione@crescereinsiemearlonlus.it;;Accreditamento;provvedimento;5512;2015-10-30 00:00:00.000;Confermata e inoltrata alla DG;2015-11-18 10:02:09.000
264;N01;SRS11;Comunità alloggio (dai 13 ai 18 anni);IMPARANDO A VOLARE;VIA C. DE NARDIS 26;80127;63049;Napoli;NA;0815796020;0815797097;serviziresidenziali@coopetica.it;6;privata in affidamento;40,84454;14,2208;7476190637;COOPERATIVA SOCIALE;E.T.I.C.A.;VIA Pigna 92;80100;63049;Napoli;NA;0815796020;0815797097;serviziresidenziali@coopetica.it;;Autorizzazione;;Decreto 169;2009-04-16 00:00:00.000;Confermata e inoltrata alla DG;2015-04-17 13:08:25.000
265;B05;SRS10;Comunità educativa a dimensione familiare (dai 4 ai 13 anni);UNA CASA PER TUTTI;Vico Tommasini;82028;62057;San Bartolomeo in G;BN;3936020141;;coop.tandem@pec.it;6;privata in affidamento;41,411643;15,014292;7532110637;;TANDEM Coop. Soc. ONLUS;Vico Scalciccia, n. 16;80142;63049;Napoli;NA;3936020141;;coop.tandem@pec.it;;Autorizzazione/Accreditamento (art.10 comma 2-punto 2-reg. 4/2010);AUTORIZZAZIONE/ACCREDITAMENTO;Prot. 0012428;2017-10-17 00:00:00.000;Confermata e inoltrata alla DG;2018-02-08 12:40:17.000
266;N27;SRS09;Casa famiglia ( da 0 a 18 anni);Amaranta;Traversa Fondo D'Orto, 19/F;80053;63024;Castellammare di St;NA;0818703456;0818703456;coop.rugiada@gmail.com;6;privata in affidamento;40,731102;14,485109;7538481214;;Società Cooperativa Sociale "Rugiada";Traversa Fondo D'Orto, 19/F;80053;63024;Castellammare di St;NA;0818703456;;coop.rugiada@gmail.com;;;;;;Confermata e inoltrata alla DG;2015-03-24 12:30:30.000
267;N27;SRS09;Casa famiglia ( da 0 a 18 anni);Il Melograno;Traversa Fondo D'Orto, 19/F;80053;63024;Castellammare di St;NA;0818703456;;;7;privata in affidamento;40,731102;14,485109;7538481214;;Società Cooperativa Sociale "Rugiada";Traversa Fondo D'Orto, 19/F;80053;63024;Castellammare di St;NA;0818703456;;coop.rugiada@gmail.com;;Autorizzazione;Autorizzazione Provvisoria;11003;2015-03-19 00:00:00.000;Confermata e inoltrata alla DG;2015-03-24 13:51:11.000
268;N23;SRS10;Comunità educativa a dimensione familiare (dai 4 ai 13 anni);AURORA;via Puzzariello, 9;80030;63065;Roccarainola;NA;0815118808;0815118808;associazioneselene@libero.it;6;privata in affidamento;40,981292;14,541286;7551421212;;Selene;via Puzzariello, 9;80030;63065;Roccarainola;NA;0815118808;0815118808;associazioneselene@libero.it;;Accreditamento;determina dirigenziale;204;2015-07-27 00:00:00.000;Confermata e inoltrata alla DG;2015-08-06 12:24:41.000
269;N01;SRS11;Comunità alloggio (dai 13 ai 18 anni);ITACA;vico Giganti 46;80100;63049;Napoli;NA;0810016515;;itacaong@gmail.com;6;privata in affidamento;40,85188;14,25774;7557140634;ONG ONLUS;ITACA;SALITA MIRADOIS 63;80137;63049;Napoli;NA;081457453;081457453;itacaong@gmail.com;;Autorizzazione;Decreto Dirigenziale;238;2012-10-04 00:00:00.000;Confermata e inoltrata alla DG;2015-04-17 13:08:25.000
270;N01;SRS10;Comunità educativa a dimensione familiare (dai 4 ai 13 anni);OIKOS;via romolo e Remo 56;80100;63049;Napoli;NA;0817283060;0817283060;oikos@progettouomo.org;6;privata in affidamento;40,838305;14,197838;7571900633;Cooperativa Sociale ;Progetto uomo ;via Romolo e Remo 52;80100;63049;Napoli;NA;0817283060;0817283060;oikos@progettouomo.org;;Autorizzazione/Accreditamento (art.10 comma 2-punto 2-reg. 4/2010);Disposizione Dirigenziale;44;2017-07-04 00:00:00.000;Confermata e inoltrata alla DG;2017-08-10 13:02:34.000
271;N16;SRS10;Comunità educativa a dimensione familiare (dai 4 ai 13 anni);CARACREATURA;VIA F. TURATI 5;80019;63062;Qualiano;NA;08119018222;08119018222;angelicoop@pec.it;6;privata in affidamento;40,918981;14,153489;7609871210;;COOPERATIVA SOCIALE AN.GE.LI.;VIA FILIPPO TURATI 5;80019;63062;Qualiano;NA;08119018222;08119018222;angelicoop@pec.it;angelicoop@pec.it;Autorizzazione;decreto;5;2014-11-10 00:00:00.000;Completa;
272;N01;SRS10;Comunità educativa a dimensione familiare (dai 4 ai 13 anni);PICCOLI SOLI;VIA A. MODIGLIANI 25/B;80126;63049;Napoli;NA;0813651088;0813651088;neamake@gmail.com;6;privata in affidamento;40,857701;14,164069;7610320637;ASSOCIAZIONE ONLUS;NEA MAKE;VIALE AUGUSTO 62;80125;63049;Napoli;NA;0813651088;0813651088;neamake@gmail.com;;Accreditamento;Disposizione Dirigenziale;88;2015-05-13 00:00:00.000;Confermata e inoltrata alla DG;2015-05-19 14:13:55.000
273;N01;SRS10;Comunità educativa a dimensione familiare (dai 4 ai 13 anni);L'AQUILOTTO;STRADA MANDRACCHIO 35;80131;63049;Napoli;NA;0815874124;0815874124;info@cooperativagiglio.it;4;privata in affidamento;40,873732;14,182615;7667450634;Cooperativa Sociale;GIGLIO;STRADA MANDRACCHIO A NAZARETH 27;80131;63049;Napoli;NA;0815874124;0815874124;info@cooperativagiglio.it;;Autorizzazione;Disposizione Dirigenziale;197;2015-11-27 00:00:00.000;Confermata e inoltrata alla DG;2015-12-15 14:59:46.000
274;N19;SRS11;Comunità alloggio (dai 13 ai 18 anni);CASA DEL DOMANI;VIA MOCERINO, N.64;80021;63002;Afragola;NA;3480576084;;cittadelsolecoop@pec.it;8;privata in affidamento;40,919615;14,300239;7787801211;;società cooperativa sociale "CITTA' DEL SOLE";via   F.lli Bandiera, n.24;80014;63034;Giugliano in Campan;NA;3480576084;;ANTONIETTADIMARINO75@LIBERO.IT;CITTADELSOLECOOP@PEC.IT;Accreditamento; provvedimento di accreditamento;954;2016-11-22 00:00:00.000;Confermata e inoltrata alla DG;2018-02-26 13:17:14.000
275;N20;SRS11;Comunità alloggio (dai 13 ai 18 anni);Strade Nuove;via mulino Vecchio 58;80011;63001;Acerra;NA;0810169393;;coopversolaltro@gmail.com;8;privata in affidamento;40,959752;14,371659;7826041217;;Verso l'altro;ViaCattaneo n° 20 ;80021;63002;Afragola;NA;08119714044;;coopversolaltro@gmail.com;;Autorizzazione/Accreditamento (art.10 comma 2-punto 2-reg. 4/2010);DETERMINA;1553;2017-11-13 00:00:00.000;Confermata e inoltrata alla DG;2017-11-16 10:50:23.000
276;N19;SRS10;Comunità educativa a dimensione familiare (dai 4 ai 13 anni);Piccoli Passi;ss Statale 87 I trav km10 ;80021;63002;Afragola;NA;08119714044;;coopversolaltro@gmail.com;4;privata in affidamento;40,923039;14,309304;7826041217;;Verso l'altro;ViaCattaneo n° 20 ;80021;63002;Afragola;NA;08119714044;;coopversolaltro@gmail.com;;Autorizzazione;provvedimento;21979;2015-06-10 00:00:00.000;Confermata e inoltrata alla DG;2015-07-28 11:27:38.000
277;N20;SRS11;Comunità alloggio (dai 13 ai 18 anni);big family;VIA BRINDISI 1;80011;63001;Acerra;NA;3926706741;;coopdetaamm@hotmail.com;8;privata in affidamento;40,937397;14,375917;7852521215;;Deta;via Michelangelo , 19;80011;63001;Acerra;NA;3926706741;;Salvatorepapaccio72@gmail.com;detacoop@pec.it;Autorizzazione/Accreditamento (art.10 comma 2-punto 2-reg. 4/2010);DETERMINA;324;2018-03-14 00:00:00.000;Confermata e inoltrata alla DG;2018-03-28 10:07:01.000
278;N20;SRS11;Comunità alloggio (dai 13 ai 18 anni);BIG HOUSE;VIA ARMANDO DIAZ  106;80011;63001;Acerra;NA;3926706741;;coopdetaamm@hotmail.com;6;privata in affidamento;40,937002;14,377644;7852521215;;Deta;via Michelangelo , 19;80011;63001;Acerra;NA;3926706741;;Salvatorepapaccio72@gmail.com;detacoop@pec.it;Accreditamento;DETERMINA;1166;2015-09-30 00:00:00.000;Confermata e inoltrata alla DG;2018-03-28 10:12:46.000
279;N23;SRS11;Comunità alloggio (dai 13 ai 18 anni);Albachiara;via trivice d'ossa, 35;80030;63013;Camposano;NA;0818041225;0818041225;albachiara2001@gmail.com;5;privata in affidamento;40,951809;14,526731;7913031212;;Albachiara;via Anfiteatro, 9;80078;63060;Pozzuoli;NA;0818041225;0818041225;albachiara2001@gmail.com;;Accreditamento;Determina Dirigenziale;575;2016-11-24 00:00:00.000;Confermata e inoltrata alla DG;2017-05-26 13:41:03.000
280;N23;SRS11;Comunità alloggio (dai 13 ai 18 anni);Villabate;via G. Matteotti, 118;80033;63027;Cicciano;NA;081191887459;;coopunika@pec.it;8;privata in affidamento;40,966238;14,537883;8125231210;;UNIKA;via Mario De Sena,152;80035;63050;Nola;NA;08119187459;;coopunika@pec.it;coopunika@pec.it;Accreditamento;Determina Dirigenziale;339;2015-11-03 00:00:00.000;Confermata e inoltrata alla DG;2015-11-11 10:40:57.000
281;N19;SRS09;Casa famiglia ( da 0 a 18 anni);MAMME CORAGGIO;via Risorgimento n.2;80023;63011;Caivano;NA;3203494345;;ass.mammecoraggio@libero.it;6;privata in affidamento;40,959461;14,307468;8149511217;;Il Tempio della Felicità di Mary;via Risorgimento n.2;80023;63011;Caivano;NA;3203494345;08119971404;ass.mammecoraggio@libero.it;;Autorizzazione;provvedimento;5383;2015-09-14 00:00:00.000;Confermata e inoltrata alla DG;2015-10-15 10:26:11.000
282;N19;SRS11;Comunità alloggio (dai 13 ai 18 anni);Il Tempio della Felicità di Mary;via Risorgimento n.2;80023;63011;Caivano;NA;3203494345;;ass.mammecoraggio@libero.it;8;privata in affidamento;40,959461;14,307468;8149511217;;Il Tempio della Felicità di Mary;via Risorgimento n.2;80023;63011;Caivano;NA;3203494345;08119971404;ass.mammecoraggio@libero.it;;Autorizzazione;provvedimento;608;2016-06-29 00:00:00.000;Completa;
283;C10;SRS10;Comunità educativa a dimensione familiare (dai 4 ai 13 anni);COMUNITA' EDUCATIVA A DIMENSIONE FAMILIARE PER MINORI;VIA TEVERE N. 4;81034;61052;Mondragone;CE;08231545436 - 3498829116;;megri80@libero.it;6;privata in affidamento;41,037565;13,929607;33090606618;S.a.S.;VILLA NASCENTINA S.a.S. di GRIECO Filomena & C;VIA TEVERE N. 4;81034;61052;Mondragone;CE;08231545436 - 3498829116;;megri80@libero.it;;Autorizzazione;;2436-38;2012-01-30 00:00:00.000;Parzialmente compilata;
284;C02;SRS10;Comunità educativa a dimensione familiare (dai 4 ai 13 anni);Sweet Life;via Cappuccini,10;;61004;Arienzo;Ce;0823839560;0823839560;cooperativalife@virgilio.it;6;privata in affidamento;41,02641;14,499517;56328312119;Cooperativa sociale - ONLUS;Sweet Life;via A. Omodeo,126;;63049;Napoli;NA;0823804119;0823755806;cooperativalife@virgilio.it;;Autorizzazione;;226;2012-07-24 00:00:00.000;Parzialmente compilata;
285;N19;SRS10;Comunità educativa a dimensione familiare (dai 4 ai 13 anni);S.Giuseppe;Corso Garibaldi n. 106;80021;63002;Afragola;NA;081851 1398;0818511398;scuola.sangiuseppe@libero.it;6;privata in affidamento;40,91549;14,30221;80029350636;Istituto Educativo;Congregazione Suore Francescane Adoratrici della S.Croce;Via Nuova Padre Ludovico n. 26;80026;63023;Casoria;NA;0817580273;0817580273;istitutovelotti@tin.it;;Autorizzazione;;1189;2007-06-05 00:00:00.000;Parzialmente compilata;
286;C07;SRS09;Casa famiglia ( da 0 a 18 anni);LA COMPAGNIA DEI FELICIONI;VIA ROMANIELLO 110/A;81038;61094;Trentola-Ducenta;CE;0818149357;0818149357;tev.arco@libero.it;4;privata in affidamento;40,971262;14,172247;90008470610;un’associazione senza fini di lucro ;Comunità di Capodarco;VIA DIETRO CORTE I N. 73;81030;61092;Teverola;CE;0818149357;;tev.arco@libero.it;;Accreditamento;DETERMINAZIONE DI ACCREDITAMENTO;84;2015-09-08 00:00:00.000;Completa;
287;C06;SRS09;Casa famiglia ( da 0 a 18 anni);Koinè;Via Campotonico, 82;81030;61043;Gricignano di Avers;CE;3493922621;;tramondo@gmail.com;7;privata in affidamento;40,972993;14,22902;90022220611;Associazione non lucrativa di utilità sociale;Associazione Tramondo;Via Matteotti, 6;81030;61087;Sant'Arpino;CE;0818132074;0818132074;tramondo@gmail.com;;Autorizzazione;provvedimento;4;2015-01-13 00:00:00.000;Confermata e inoltrata alla DG;2015-04-28 13:45:45.000
288;N01;SRS11;Comunità alloggio (dai 13 ai 18 anni);IL SOGNO;VIA DON BOSCO 8;80141;63049;Napoli;NA;0817809266;0817514981;grandisogninapoli@libero.it;8;privata in affidamento;40,867565;14,272776;90061050630;Associazione di Promozione Sociale;"Piccoli Passi Grandi Sogni";via Margherita di Savoia 22;80058;63083;Torre Annunziata;NA;0818624138;0818624138;casamammamatilde@libero.it;apspiccolipassi@pec.it;Accreditamento;Disposizione Dirigenziale;89;2015-05-13 00:00:00.000;Confermata e inoltrata alla DG;2015-05-19 14:09:01.000
289;N30;SRS11;Comunità alloggio (dai 13 ai 18 anni);Mamma Matilde;via Margherita di Savoia 22;80058;63083;Torre Annunziata;NA;0818624138;;casamammamatilde@libero.it;8;privata in affidamento;40,75757;14,453477;90061050630;Associazione di Promozione Sociale;Piccoli Passi Grandi Sogni;via Margherita di Savoia 22;80058;63083;Torre Annunziata;NA;0818624138;0818624138;casamammamatilde@libero.it;apspiccolipassi@pec.it;;;;;Parzialmente compilata;
290;A03;SRS11;Comunità alloggio (dai 13 ai 18 anni);Struttura sita nel comune di Sant'Andrea di Conza;Vico I Incoronata - Piano Rialzato;83053;64089;Sant'Andrea di Conz;AV;3396519487;;pec.irpinia2000onlus@pec.it;8;privata in affidamento;40,844259;15,369634;91003470647;;Irpinia 2000 Onlus;Via San Rocco;83054;64092;Sant'Angelo dei Lom;AV;3396519487;;irpinia2000onlus@pec.it;irpinia2000onlus@pec.it;Accreditamento;Decreto;1;2018-01-10 00:00:00.000;Confermata e inoltrata alla DG;2018-01-25 11:43:07.000
291;A03;SRS11;Comunità alloggio (dai 13 ai 18 anni);Struttura sita nel Comune di Sant'Andrea di Conza - Piano Primo;Vico I Incoronata;83053;64089;Sant'Andrea di Conz;AV;3396519487;;pec.irpinia2000onlus@pec.it;8;privata in affidamento;40,844259;15,369634;91003470647;;Irpinia 2000 Onlus;Via San Rocco;83054;64092;Sant'Angelo dei Lom;AV;3396519487;;irpinia2000onlus@pec.it;irpinia2000onlus@pec.it;Accreditamento;Decreto;2;2018-01-10 00:00:00.000;Confermata e inoltrata alla DG;2018-01-25 12:03:19.000
292;N22;SRS10;Comunità educativa a dimensione familiare (dai 4 ai 13 anni);I colori dell'arcobaleno;Via IX Maggio, 17;80030;63025;Castello di Cistern;NA;0818842841;0818842841;irene95onlus@tin.it;6;privata in affidamento;40,917318;14,411488;92033630630;associazione;Associazione Alba Onlus;Via IX Maggio, 17;80030;63025;Castello di Cistern;NA;0818842841;0818842841;veronica-allocca@libero.it;;Autorizzazione;;121;2012-06-08 00:00:00.000;Parzialmente compilata;
293;B03;SRS10;Comunità educativa a dimensione familiare (dai 4 ai 13 anni);"Santa Maria delle Grazie";Via Delle Grazie snc;82011;62005;Arpaia;BN;0823951032;0823951032;casasullalbero.arpaia@gmail.com;6;privata in affidamento;41,034779;14,546722;92064090621;ASSOCIAZIONE ONLUS;ASSOCIAZIONE LA CASA SULL'ALBERO ONLUS;VIA DELLE GRAZIE;82011;62005;Arpaia;BN;0823951032;0823951032;casasullalbero.arpaia@gmail.com;casasullalbero.arpaia@pec.it;Autorizzazione/Accreditamento (art.10 comma 2-punto 2-reg. 4/2010);Provvedimento di Autorizzazione/Accreditamento ;12728;2016-08-10 00:00:00.000;Confermata e inoltrata alla DG;2017-05-24 13:39:38.000
294;N19;SRS10;Comunità educativa a dimensione familiare (dai 4 ai 13 anni);Siepe in Fiore;Via Brodolini n. 16;80021;63002;Afragola;Na;0818601010;;lusicuro@tiscali.it;6;privata in affidamento;40,9244;14,302685;93025290631;Associazione;CADEL Comunità Apostolica dono di Elvira e Luisa;via Brodolini n. 16;80021;63002;Afragola;NA;0818601010;;lusicuro@tiscali.it;;Autorizzazione;;1461;2010-01-22 00:00:00.000;Parzialmente compilata;
295;C08;SRS11;Comunità alloggio (dai 13 ai 18 anni);Maria di Nazareth Onlus;Via carceri Vecchie, N° 12;;61081;San Prisco;Ce;0823794189;08231761353;dr.volpicelli@gmail.com;6;privata in affidamento;41,082977;14,273956;94013870616;Associazione;Maria di Nazareth Onlus;Via Piave, N° 86;81054;61032;Curti;CE;;;dr.volpicelli@gmail.com;;Autorizzazione;;U.Aut/Accred;2011-11-21 00:00:00.000;Parzialmente compilata;
296;N01;SRS10;Comunità educativa a dimensione familiare (dai 4 ai 13 anni);LA CRISALIDE;VIA AQUILA 144;80143;63049;Napoli;NA;081269834;081269834;ass.margherita@libero.it;6;privata in affidamento;40,855276;14,2723;94095850635;ASSOCIAZIONE ONLUS;MARGHERITA;VIA AQUILA 144;80143;63049;Napoli;NA;081269834;081269834;ass.margherita@libero.it;;Accreditamento;Disposizione Dirigenziale;102;2016-11-25 00:00:00.000;Confermata e inoltrata alla DG;2018-02-01 17:32:37.000
297;N19;SRS11;Comunità alloggio (dai 13 ai 18 anni); COMUNITA' ALLOGGIO CASA SABIR;VIA GIOVANNI PASCOLI, 18-22, PIANO SCALA A int. 1;80021;63002;Afragola;NA;081455270;08119512896;info@pec.less-onlus.org;8;privata in affidamento;40,916524;14,301465;94195150639;;L.E.S.S. Onlus;c.so Garibaldi, 261;80139;63049;Napoli;NA;081455270/3403927210;;marika.visconti@less-onlus.org;info@pec.less-onlus.org;Autorizzazione;;1308;2017-12-07 00:00:00.000;Confermata e inoltrata alla DG;2018-02-26 12:52:11.000
298;N01;SRS09;Casa famiglia ( da 0 a 18 anni);LA NUVOLA;PIAZZA LO BIANCO 10;80143;63049;Napoli;NA;0815844407;0815844407;ass.nuvola@tin.it;6;privata in affidamento;40,859014;14,292264;94204110632;ASSOCIAZIONE ONLUS;LE ALI ;VIA FRAGGIANNI 49;80143;63049;Napoli;NA;0815844407;0815844407;ass.nuvola@tin.it;;Accreditamento;Disposizione Dirigenziale;94;2016-11-08 00:00:00.000;Confermata e inoltrata alla DG;2016-11-17 13:00:16.000
299;C10;SRS11;Comunità alloggio (dai 13 ai 18 anni);Comunità  Alloggio "Anthea" ONLUS;Via Nazionale nÂ°137;81030;61017;Carinola;CE;0823939146-971729;0823939146-971729;associazioneanthea@yahoo.it;8;privata in affidamento;41,192951;13,963203;95004630612;ASSOCIAZIONE DI PROMOZIONE SOCIALE;ASSOCIAZIONE ANTHEA ONLUS;Via Asti - n°24;81034;61052;Mondragone;CE;0823971729;0823071729 - 601341;associazioneanthea@yahoo.it;;Autorizzazione;autorizzazione;43540;2015-10-29 00:00:00.000;Confermata e inoltrata alla DG;2017-12-11 11:45:49.000
300;C04;SRS09;Casa famiglia ( da 0 a 18 anni);La Casa di Amely;Via Botteghe, n.58;81016;61080;San Potito Sannitic;CE;3356271427;3356271427;assodopoilsilenzio08@gmail.com;6;privata in affidamento;41,337131;14,39206;95008150617;;Associazione Dopo Il Silenzio;Via Avezzana, 76 ;81055;61083;Santa Maria Capua V;CE;3356271427;;assodopoilsilenzio08@gmail.com;;;;;;Confermata e inoltrata alla DG;2018-02-02 10:36:44.000
301;C03;SRS10;Comunità educativa a dimensione familiare (dai 4 ai 13 anni);La Piccola Casetta di Nazareth - S. Maria a Castello;Via Don Salvatore Vitale;81050;61036;Francolise;CE;0823877107;0823877107;pcnfrancolise@alice.it;6;privata in affidamento;41,185122;14,054436;95013400619;associazione senza scopo di lucro;La Piccola Casetta di Nazareth - S. Maria a Castello;Via Don Salvatore Vitale;;61036;Francolise;CE;0823877107;0823877107;pcnfrancolise@alice.it;;Autorizzazione;;3;2012-09-24 00:00:00.000;Parzialmente compilata;
302;N16;SRS10;Comunità educativa a dimensione familiare (dai 4 ai 13 anni);SHALOM;CORSO ITALIA N.280/A;80010;63087;Villaricca;NA;0813300688;0813300688;shalom.2006@libero.it;6;privata in affidamento;40,917422;14,182423;95063020630;ASSOCIAZIONE DI PROMOZIONE SOCIALE  -ONLUS;SHALOM;CORSO ITALIA N.280-P.T INT.2-PARCO UMBERTO;80010;63087;Villaricca;NA;0813300688;0813300688;shalom.2006@libero.it;;Autorizzazione;;861;2012-07-06 00:00:00.000;Parzialmente compilata;
303;C07;SRS10;Comunità educativa a dimensione familiare (dai 4 ai 13 anni);L'ANGELO CUSTODE;Via Diaz;81038;61094;Trentola-Ducenta;CE;0810663573;0810320560;angelocustode.onlus@libero.it ;6;privata in affidamento;40,976881;14,175732;95065450637;;COOPERATIVA SOCIALE 'L'ANGELO CUSTODE';Centro Direzionale IS. G1 SC. A;80135;63049;Napoli;NA;0810663573;0810320560;angelocustode.onlus@libero.it ;;Autorizzazione/Accreditamento (art.10 comma 2-punto 2-reg. 4/2010);DETERMINAZIONE ;126;2015-11-10 00:00:00.000;Completa;
304;N01;SRS10;Comunità educativa a dimensione familiare (dai 4 ai 13 anni);La Casa di Matteo;Via Pigna 92;80128;63049;Napoli;NA;08119206245;08119206245;casadimatteonapoli@gamil.com;6;privata in affidamento;40,849546;14,217554;95144980638;associazione di promozione sociale;Ass. A ruota libera;via luigi calderi,140;80100;63049;Napoli;NA;08119910077;;aruotalibera@libero.it;;Accreditamento;Disposizione Dirigenziale;123;2017-12-06 00:00:00.000;Confermata e inoltrata alla DG;2017-12-11 15:00:24.000
305;S04;SRS11;Comunità alloggio (dai 13 ai 18 anni);LA CASA DI REMI';via Mensa n.7;84062;65082;Olevano sul Tuscian;SA;3332200261;;ass,lacolomba2013@libero.it;6;privata in affidamento;40,649241;15,021489;95156440656;Associazione di promozione sociale;LA COLOMBA;via Mensa n.7;84062;65082;Olevano sul Tuscian;SA;3332200261;089727317;ass,lacolomba2013@libero.it;;Autorizzazione;;7537;2014-03-11 00:00:00.000;Parzialmente compilata;
306;N15;SRS10;Comunità educativa a dimensione familiare (dai 4 ai 13 anni);Quarto Felix;Via Matteotti 1;80010;63063;Quarto;NA;0818763203;;onlusdelfino2000@libero.it;6;privata in affidamento;40,879483;14,135432;96010530630;Associazione onlus;Delfino 2000;Via Matteotti 1;80010;63063;Quarto;NA;0818763203;0818062340;onlusdelfino2000@libero.it;;Autorizzazione;;892;2012-05-31 00:00:00.000;Parzialmente compilata;
307;N19;SRS10;Comunità educativa a dimensione familiare (dai 4 ai 13 anni);Maria Montessori;Via Rosselli N°95;80023;63011;Caivano;NA;3356488579;0810060342;montessoriaccoglie@libero.it;6;privata in affidamento;40,950492;14,372132;DCCVCN78C56A0241;Società cooperativa di produzione e lavoro;Coop. Sociale Montessori a.r.l.;Via Marconi N°16;80011;63001;Acerra;NA;3356488579;0810060342;i.socrates@alice.it;;Autorizzazione;;1735;2010-06-22 00:00:00.000;Parzialmente compilata;
308;N16;SRS11;Comunità alloggio (dai 13 ai 18 anni);Il Colibrì in volo;Via G.B.Vico n.46;80010;63087;Villaricca;NA;0815062417;0815062417;arvu@pec.it;8;privata in affidamento;40,9196;14,172752;;;;;;;;;;;;;;;;;Parzialmente compilata;
